{
"type": "FeatureCollection",
"name": "tcd_admin0",
"crs": { "type": "name", "properties": { "name": "urn:ogc:def:crs:OGC:1.3:CRS84" } },
"features": [
{ "type": "Feature", "properties": { "iso2": "TD", "iso3": "TCD", "adm0_name": "Tchad", "adm0_name1": null, "adm0_name2": null, "adm0_name3": null, "adm0_pcode": "TCD", "valid_on": "2025-02-12", "valid_to": null, "version": "v01", "area_sqkm": 1265079.45209752, "lang": "fr", "lang1": null, "lang2": null, "lang3": null, "center_lat": 15.45256664, "center_lon": 18.56364425 }, "geometry": { "type": "Polygon", "coordinates": [ [ [ 24.003309033000164, 15.818664129000126 ], [ 24.003140658000177, 15.916076951000036 ], [ 24.004578488000107, 16.040176848000158 ], [ 24.00528943900008, 16.094547077000072 ], [ 24.007536071000118, 16.609818268000083 ], [ 24.008993953000129, 16.98214078400008 ], [ 24.004246359000092, 17.639846884 ], [ 24.004013388000089, 17.694044064000082 ], [ 24.003450993000172, 17.812667234000116 ], [ 24.003371742000127, 18.017052746000104 ], [ 24.004312332000097, 18.198432622000041 ], [ 24.004719406000049, 18.260141670000053 ], [ 24.004819101000066, 18.343872967000152 ], [ 24.005126567000104, 18.413572272000067 ], [ 24.005637498000169, 18.584700560000101 ], [ 24.005652384000143, 18.662280174000045 ], [ 24.005551443000058, 18.71506496500001 ], [ 24.005249724000066, 18.861409367000078 ], [ 24.004112714000144, 19.309913035000079 ], [ 24.004372655000054, 19.498068634999981 ], [ 23.954018140000073, 19.523494292000066 ], [ 23.897260386000028, 19.552163391000136 ], [ 23.116272847000175, 19.940497519000075 ], [ 23.014706593000142, 19.991399290000061 ], [ 22.335483816000021, 20.328360776000125 ], [ 22.035950653000043, 20.477368638000087 ], [ 21.255214157000069, 20.864713742000163 ], [ 20.980485348000116, 21.001269154999989 ], [ 16.914165154000045, 23.019116860000111 ], [ 16.026380365000023, 23.4597494140001 ], [ 15.750463215000082, 23.337016221000056 ], [ 15.638507549, 23.287009786999988 ], [ 14.999023386000033, 22.999105961000055 ], [ 15.052763684000126, 22.72003685400017 ], [ 15.198318470000061, 21.990478794000069 ], [ 15.200465893000171, 21.719159644000115 ], [ 15.200159429000053, 21.496560753999972 ], [ 15.282173512000156, 21.4479358050001 ], [ 15.349018150000063, 21.296765983000114 ], [ 15.586745796000116, 20.999373558000116 ], [ 15.611079000000132, 20.961577 ], [ 15.550347000000102, 20.871149 ], [ 15.56249499900008, 20.81463100000019 ], [ 15.598933, 20.74680999900005 ], [ 15.647519, 20.701596000000109 ], [ 15.768983001000151, 20.599865000000136 ], [ 15.817567, 20.498132999000177 ], [ 15.926885, 20.396402 ], [ 15.996052999000028, 20.351697 ], [ 15.774567, 19.970601000000158 ], [ 15.637449608000168, 18.998818584000048 ], [ 15.598933, 18.723483000000101 ], [ 15.568852793000133, 17.996441747000176 ], [ 15.539435175000108, 17.00371772200009 ], [ 15.530971409000017, 16.707053350000024 ], [ 15.211499899000103, 16.449363831000028 ], [ 14.645120587000065, 15.993506887000024 ], [ 14.391005678999989, 15.736675050000144 ], [ 14.282958644000132, 15.597713798000086 ], [ 14.243485478000082, 15.545443998000167 ], [ 14.197636246000116, 15.481131432000154 ], [ 14.180390775999967, 15.456321026000069 ], [ 14.13138238099998, 15.386698539000122 ], [ 14.001547062000157, 15.200823553000134 ], [ 13.96367397, 15.148005836000038 ], [ 13.874189906000083, 15.048882695000088 ], [ 13.85020872299998, 14.998584538000159 ], [ 13.829850449000048, 14.95445059400015 ], [ 13.79200245100003, 14.869080451000173 ], [ 13.795532742000034, 14.794517481000128 ], [ 13.811660953000171, 14.731456517000083 ], [ 13.757236673000136, 14.699275505 ], [ 13.692507830000068, 14.657327430000123 ], [ 13.668845609000073, 14.63803083900001 ], [ 13.690846468000132, 14.618264883000052 ], [ 13.690911566000182, 14.590711124000109 ], [ 13.69310998900005, 14.56079184500004 ], [ 13.669990842000061, 14.538902205000056 ], [ 13.650331651000158, 14.523134003000109 ], [ 13.615332961000149, 14.509030272000132 ], [ 13.579478827000116, 14.509231939000074 ], [ 13.547189807000109, 14.499417736999987 ], [ 13.504196534000073, 14.484474151000086 ], [ 13.470106148000127, 14.459560896000141 ], [ 13.47370040900006, 14.406153861000178 ], [ 13.489855717000069, 14.337275895000062 ], [ 13.501717467000049, 14.287174515000174 ], [ 13.518640694000055, 14.216854780000062 ], [ 13.539997640000024, 14.127055618000043 ], [ 13.557577298000126, 14.053843229000051 ], [ 13.571383621000166, 13.994989284000042 ], [ 13.618855081000106, 13.795439323000039 ], [ 13.636780329000146, 13.719867167000075 ], [ 13.759693387000027, 13.548554959000114 ], [ 14.000151351000056, 13.213412491000099 ], [ 14.082670143000087, 13.080466960000138 ], [ 14.456311331000109, 13.0794992430001 ], [ 14.511220898000033, 13.000671306000186 ], [ 14.526525460000187, 12.973800413000106 ], [ 14.534982860000071, 12.940782292000108 ], [ 14.532212185000049, 12.913183849000177 ], [ 14.530046454000171, 12.88152842900007 ], [ 14.553624192000029, 12.861823648000097 ], [ 14.563256863000049, 12.832104924000191 ], [ 14.550093599000036, 12.800923566000051 ], [ 14.569813863000093, 12.775846198000067 ], [ 14.593354320000174, 12.753956488000085 ], [ 14.619447731000093, 12.758142356000064 ], [ 14.637854129000175, 12.739459473000068 ], [ 14.667166010000074, 12.723011573000065 ], [ 14.703082887999983, 12.725137071000063 ], [ 14.719000453000149, 12.702830728000151 ], [ 14.71476188600019, 12.671084374000145 ], [ 14.744770809000045, 12.68373371600012 ], [ 14.763892172000055, 12.652653455000063 ], [ 14.787597093000045, 12.634759938000059 ], [ 14.817195828000081, 12.636382025000046 ], [ 14.836762890000102, 12.617343437000102 ], [ 14.844760449000034, 12.581293398000071 ], [ 14.851591042000052, 12.539648606000128 ], [ 14.855495997000105, 12.504303064000055 ], [ 14.861527624000075, 12.464081493000037 ], [ 14.881764456000099, 12.433534884000039 ], [ 14.899925945000064, 12.403536743000188 ], [ 14.905930313000056, 12.370979685000066 ], [ 14.902991586000155, 12.334286238000118 ], [ 14.896487685000182, 12.306372787999976 ], [ 14.900604341000076, 12.271926400000041 ], [ 14.898245421000126, 12.238505746000044 ], [ 14.896009608000156, 12.211936324000135 ], [ 14.903619406000075, 12.186219461000121 ], [ 14.889490936000072, 12.163388651000048 ], [ 14.912297581000189, 12.140980142000046 ], [ 14.955739096000173, 12.103080777000116 ], [ 14.986510087000056, 12.106280054000081 ], [ 15.009792650000065, 12.118006675000174 ], [ 15.036230419000049, 12.092759106000074 ], [ 15.055981821000046, 12.061572657000113 ], [ 15.054365208000149, 12.033533371999965 ], [ 15.060728738000137, 12.006243508000125 ], [ 15.081367949000139, 11.990279875000112 ], [ 15.053686830000117, 11.970266499000104 ], [ 15.057554896000056, 11.931837366000025 ], [ 15.040031207000141, 11.906607895000036 ], [ 15.046748530000173, 11.876955453000107 ], [ 15.074397096000041, 11.851419840000119 ], [ 15.096576808000066, 11.831328832000111 ], [ 15.110862170000075, 11.799094918000094 ], [ 15.09077013700005, 11.766037586000152 ], [ 15.098454341000092, 11.735342362999972 ], [ 15.070798062000165, 11.723559942000065 ], [ 15.075056836000101, 11.692568960000017 ], [ 15.080052082000066, 11.664747928999986 ], [ 15.083328278000067, 11.636294408000026 ], [ 15.097761163000087, 11.60675524200002 ], [ 15.124139516000128, 11.575886129000082 ], [ 15.141052394000099, 11.555079279000154 ], [ 15.129441642000074, 11.519512489000022 ], [ 15.103792959000032, 11.488886328000092 ], [ 15.084479953000027, 11.458543675000158 ], [ 15.06531050000018, 11.423468226000125 ], [ 15.059241835000137, 11.399134754000045 ], [ 15.058971789000168, 11.358914054000024 ], [ 15.066832161000036, 11.330733653000095 ], [ 15.058156363000023, 11.299107367999966 ], [ 15.042262688000108, 11.264646546000108 ], [ 15.035964625000076, 11.237316037000141 ], [ 15.030066280000085, 11.212060122000082 ], [ 15.034735006000062, 11.168244568000148 ], [ 15.032128355000111, 11.131880974000183 ], [ 15.038647585000035, 11.092471293000187 ], [ 15.043024796000111, 11.064121196000087 ], [ 15.047273475000168, 11.038002910000159 ], [ 15.053631938000024, 10.998471366000103 ], [ 15.073104966000074, 10.957164860000091 ], [ 15.085578512999973, 10.923028766000073 ], [ 15.092379397000116, 10.889175335000061 ], [ 15.088370044000158, 10.863041404 ], [ 15.072020339000119, 10.841582948 ], [ 15.0712510890001, 10.809604481000065 ], [ 15.088579918999983, 10.770188083000107 ], [ 15.099377165000021, 10.746198143000072 ], [ 15.115664373000129, 10.722121080000022 ], [ 15.134169401000179, 10.688959965000151 ], [ 15.142011743000126, 10.66402997800003 ], [ 15.154630003000022, 10.638270220000095 ], [ 15.149426417000086, 10.598997561999965 ], [ 15.144555701000115, 10.559341129000188 ], [ 15.154306012000177, 10.530549965999967 ], [ 15.181185790000029, 10.51364211200007 ], [ 15.202988262000076, 10.500234746000103 ], [ 15.22705005, 10.482878246000041 ], [ 15.243702472000109, 10.457265482000025 ], [ 15.264693929000089, 10.423553479000134 ], [ 15.279307019000044, 10.393411765000053 ], [ 15.282858917000112, 10.36548364600003 ], [ 15.293221137000046, 10.341693657000121 ], [ 15.307048291000115, 10.312644846000126 ], [ 15.32955719600011, 10.303829007000161 ], [ 15.350813585000026, 10.28932713800009 ], [ 15.371895856000037, 10.262420656000131 ], [ 15.390891519000149, 10.246311919 ], [ 15.406752901000118, 10.22477820600011 ], [ 15.425708262000057, 10.205577957000116 ], [ 15.447308148000047, 10.181618928000091 ], [ 15.466228923000187, 10.146644454000125 ], [ 15.488570454000126, 10.119886061000102 ], [ 15.50431937899998, 10.099696179999967 ], [ 15.528773037, 10.092704413000149 ], [ 15.552168498000185, 10.072172839000075 ], [ 15.580044183000098, 10.065601861000118 ], [ 15.598752521000108, 10.048537981000095 ], [ 15.630489495000063, 10.035042243000078 ], [ 15.662583372000142, 10.016190118000168 ], [ 15.682055114000093, 10.000568052000062 ], [ 15.65551130700004, 9.985386937000101 ], [ 15.536225951000119, 9.95652759800015 ], [ 15.511189244999969, 9.951322491000155 ], [ 15.413837188, 9.938478965000115 ], [ 15.38202172400014, 9.953610556 ], [ 15.35998247200007, 9.964744580000058 ], [ 15.241032525000094, 9.991806517000157 ], [ 15.207565998000121, 9.992220221000082 ], [ 15.163555945000155, 9.992539509000039 ], [ 15.125900088000151, 9.990785369000037 ], [ 15.105941262000044, 9.970548563000023 ], [ 15.060755019999988, 9.948914170000137 ], [ 15.031629769000062, 9.967478642000117 ], [ 15.000188749000074, 9.969189752000148 ], [ 14.957569086000092, 9.982823028000155 ], [ 14.798912992000055, 9.934298474000173 ], [ 14.741189989000077, 9.935471324000048 ], [ 14.724571970000056, 9.949027763000174 ], [ 14.687135553000076, 9.956455747000177 ], [ 14.633600048000176, 9.967730711000115 ], [ 14.512549325000066, 9.992762292000066 ], [ 14.47289805600019, 10.003514875000064 ], [ 14.211524348000069, 9.9986503290001 ], [ 14.1726367710001, 9.906704531000059 ], [ 14.155783806000045, 9.867481440000063 ], [ 14.13393451900015, 9.82924678400019 ], [ 14.098961431000134, 9.800560083000107 ], [ 14.020843378000166, 9.72487652500007 ], [ 13.979948575000037, 9.645370157000059 ], [ 13.999919664000174, 9.623490036000078 ], [ 14.030394013000148, 9.613631195000153 ], [ 14.086411065000163, 9.55088550500011 ], [ 14.104951480000068, 9.520971264000082 ], [ 14.129656670000088, 9.503431176999982 ], [ 14.15461207300018, 9.49426689600017 ], [ 14.175046707000035, 9.472892452000167 ], [ 14.19785983200012, 9.446105097000043 ], [ 14.225404877000074, 9.424312375000113 ], [ 14.236984945000017, 9.400275268000144 ], [ 14.250658709000049, 9.380214073 ], [ 14.274404976000085, 9.359032116000037 ], [ 14.310081803000116, 9.358758403000081 ], [ 14.328816235000033, 9.329726944000072 ], [ 14.342962092999983, 9.30514863500008 ], [ 14.372319353000023, 9.284866717999989 ], [ 14.369111846000123, 9.241545556000119 ], [ 14.354429820000178, 9.207226059999982 ], [ 14.371943058000056, 9.178894974000116 ], [ 14.392915366000182, 9.161668362000171 ], [ 14.411096955000062, 9.143086988000164 ], [ 14.432231274000173, 9.128477540000176 ], [ 14.458889437999972, 9.114407155000151 ], [ 14.474535964000154, 9.091797356000143 ], [ 14.490214916000184, 9.063146161000191 ], [ 14.587553934000027, 8.994586367000124 ], [ 14.848633792000157, 8.812597088000189 ], [ 14.875967071000105, 8.819869649000168 ], [ 14.902415762000146, 8.80333129600001 ], [ 14.918326754000134, 8.771788933000096 ], [ 14.940036212000166, 8.752063501000123 ], [ 14.981357677000062, 8.733267478000073 ], [ 14.986948402000166, 8.69760266500009 ], [ 15.010048417000178, 8.685821380000107 ], [ 15.048793097000157, 8.676988866000102 ], [ 15.086800880000169, 8.665261425000097 ], [ 15.107342710000182, 8.649702403000049 ], [ 15.135227373000134, 8.613204838000115 ], [ 15.153526275000047, 8.575057144000027 ], [ 15.167531976000078, 8.545771187000071 ], [ 15.190197808000164, 8.513528771999972 ], [ 15.209809350000114, 8.485985266000114 ], [ 15.229454990000022, 8.454977402000111 ], [ 15.271747317000177, 8.355054896000183 ], [ 15.362704059000066, 8.159572382000135 ], [ 15.396130264000078, 8.08845736700016 ], [ 15.393842909999989, 8.045105597000031 ], [ 15.410523244000103, 8.000771195000141 ], [ 15.452529513000172, 7.882268134000185 ], [ 15.50554575700005, 7.793942888000061 ], [ 15.588531637000187, 7.765213923000033 ], [ 15.586352181000166, 7.732900144000041 ], [ 15.588832739000054, 7.699388194000164 ], [ 15.586182146, 7.671391982000102 ], [ 15.577336764, 7.637467925000124 ], [ 15.564974816000188, 7.6086271960001 ], [ 15.558265733999974, 7.582959378000169 ], [ 15.531126728000174, 7.558102100000156 ], [ 15.504148735000115, 7.530907710000179 ], [ 15.538511443000061, 7.499760953000134 ], [ 15.719896544000107, 7.507775344000038 ], [ 15.73293270400012, 7.481799481999985 ], [ 15.754035291000093, 7.466939705000186 ], [ 15.781505246, 7.460580054000047 ], [ 15.803906496000025, 7.447651642000039 ], [ 15.829813873000035, 7.450354598000047 ], [ 15.856141618000095, 7.455444523000097 ], [ 15.884678038000118, 7.464912443000117 ], [ 15.915843358000188, 7.476580826000031 ], [ 15.949858851000101, 7.484574954000152 ], [ 15.973912887000097, 7.490984422000054 ], [ 15.998674564000112, 7.50584996200007 ], [ 16.024763902000132, 7.530517949000171 ], [ 16.044649501000094, 7.569248741000024 ], [ 16.079701088000149, 7.587402447000159 ], [ 16.117521446000183, 7.591963786000179 ], [ 16.152247222000142, 7.594737862000045 ], [ 16.173601319000113, 7.607744743000012 ], [ 16.198714780000159, 7.613807437 ], [ 16.22926239300017, 7.607487524000135 ], [ 16.263092363000112, 7.625569752000047 ], [ 16.28929126100013, 7.646032971000068 ], [ 16.317242369000155, 7.656915114000071 ], [ 16.345891650000169, 7.664399070000059 ], [ 16.373334061000094, 7.673583424000071 ], [ 16.397169620000057, 7.684758704000103 ], [ 16.41568221600005, 7.711966715000074 ], [ 16.415168140000162, 7.750829233 ], [ 16.41396764700005, 7.778688364000175 ], [ 16.443843935000018, 7.794903225000041 ], [ 16.473080732000142, 7.788685153000131 ], [ 16.494677569000146, 7.807640807000041 ], [ 16.510814239000183, 7.833947282000167 ], [ 16.543370283000058, 7.853448530000037 ], [ 16.572333971000035, 7.865295823 ], [ 16.582390715000088, 7.828154174000076 ], [ 16.587644047000083, 7.800033285000097 ], [ 16.592593244000057, 7.775827084000014 ], [ 16.618360586000051, 7.763469362000023 ], [ 16.650650653000184, 7.748547786000131 ], [ 16.657454839000081, 7.706150899000079 ], [ 16.663042192999967, 7.674684667000179 ], [ 16.680266669000162, 7.657169166000131 ], [ 16.714969566000093, 7.650124033000168 ], [ 16.754983404000086, 7.621229459 ], [ 16.785109176000105, 7.592847997000092 ], [ 16.793620333000092, 7.56427092500013 ], [ 16.810019878000105, 7.541568593000022 ], [ 16.836359986000105, 7.537595697000086 ], [ 16.865954645000159, 7.553573017000133 ], [ 16.898508570000104, 7.561338816000045 ], [ 16.89280652900004, 7.586047049000115 ], [ 16.903703265000104, 7.610832701999982 ], [ 16.934867870000062, 7.631081172000052 ], [ 16.964674543000058, 7.637329652000176 ], [ 16.99954963800019, 7.638283205000107 ], [ 17.037810715000035, 7.647591077000186 ], [ 17.074600813000075, 7.662837389000117 ], [ 17.094500609000079, 7.689814280000121 ], [ 17.128514194000047, 7.67013601900004 ], [ 17.157599081000171, 7.687899910000169 ], [ 17.168417384000065, 7.715132077000135 ], [ 17.193002063000051, 7.722394198000131 ], [ 17.210589340000126, 7.742762218000166 ], [ 17.235007743000153, 7.759865244000082 ], [ 17.260986237000054, 7.778140519000033 ], [ 17.276603952000073, 7.804978314999971 ], [ 17.297575984000161, 7.822456688000102 ], [ 17.326340267999967, 7.83118364000012 ], [ 17.358214202000056, 7.85015849600012 ], [ 17.398059245000013, 7.861099448000175 ], [ 17.43803453400011, 7.88263128900013 ], [ 17.468407567000099, 7.899634289000062 ], [ 17.500626219000083, 7.881072881000136 ], [ 17.52997275000007, 7.897423882000055 ], [ 17.548760906000098, 7.921274630000141 ], [ 17.594206865000046, 7.932809789000032 ], [ 17.631568198000025, 7.945182639000052 ], [ 17.653568147000158, 7.966062210000018 ], [ 17.678417393000075, 7.98349743600005 ], [ 17.718839298000148, 7.979528673000061 ], [ 17.932697087000065, 7.956037885000114 ], [ 17.985041912999975, 7.987678471000038 ], [ 18.031564654000022, 8.010690019000151 ], [ 18.217842666000024, 8.024357333000125 ], [ 18.246571710000126, 8.025556000000108 ], [ 18.275835001000132, 8.026527500000043 ], [ 18.312458530000129, 8.028332860000035 ], [ 18.345649903000094, 8.030014507000146 ], [ 18.381168268000181, 8.031626214000028 ], [ 18.413749240000129, 8.033055000000104 ], [ 18.442337283000029, 8.034001749000026 ], [ 18.481497233000084, 8.035847876999981 ], [ 18.52345503600003, 8.037891936999983 ], [ 18.563303053000084, 8.040405692999968 ], [ 18.598922816000027, 8.051832032000107 ], [ 18.622806200000127, 8.069049370000073 ], [ 18.634115965000035, 8.102602158000138 ], [ 18.637764043000061, 8.15237580500019 ], [ 18.655861832000085, 8.183613356000137 ], [ 18.674876926000081, 8.210237181000025 ], [ 18.700211747000139, 8.226118814000017 ], [ 18.726153772000146, 8.23587210200003 ], [ 18.762727133999988, 8.246441456000014 ], [ 18.792619738000099, 8.258479682000086 ], [ 18.81183244500005, 8.273415773000181 ], [ 18.830058029999975, 8.290414532000057 ], [ 18.845340959000168, 8.313793023000017 ], [ 18.862995336000097, 8.345375077000142 ], [ 18.891974742000173, 8.367911308000032 ], [ 18.913888424, 8.388588711000182 ], [ 18.922195141000145, 8.419870259000106 ], [ 18.936279237000178, 8.442862796000099 ], [ 18.956105863000175, 8.461561397000139 ], [ 18.976031793, 8.483473003000142 ], [ 19.001512688000048, 8.514267881000137 ], [ 19.03796590200011, 8.545078538999974 ], [ 19.050145530000123, 8.586608928000146 ], [ 19.067906667000045, 8.622375527000145 ], [ 19.081436096000118, 8.638791121000168 ], [ 19.109864920000064, 8.664801705000059 ], [ 19.096114047000128, 8.700695040000085 ], [ 19.062400384000171, 8.716008633000172 ], [ 19.031691817000137, 8.736311600000022 ], [ 19.012254430000098, 8.760536621000085 ], [ 18.982750997000153, 8.774635838000052 ], [ 18.946581335000076, 8.804253329 ], [ 18.909049171000106, 8.821813936000012 ], [ 18.903322448000097, 8.851499365000109 ], [ 18.872762919000138, 8.852213637000091 ], [ 18.86505281500007, 8.876430538000136 ], [ 18.892298837000055, 8.898139140000069 ], [ 18.915659064000124, 8.922865885000078 ], [ 18.944902641000112, 8.930874395000103 ], [ 18.968040337000161, 8.944098995000047 ], [ 18.985706477000065, 8.967973166000036 ], [ 19.022306722000167, 8.992441143000121 ], [ 19.06270465700004, 9.001595117000079 ], [ 19.088151219000167, 9.012183665000066 ], [ 19.1274400960001, 9.009226642999977 ], [ 19.163745528000049, 9.013944389000073 ], [ 19.186135978000038, 9.024832362999973 ], [ 19.215404902999978, 9.030216268000061 ], [ 19.252743744000043, 9.025746462000029 ], [ 19.295699675000037, 9.011640789000069 ], [ 19.336052740000127, 9.016590384000096 ], [ 19.374038462000158, 9.02194948500005 ], [ 19.417659855000124, 9.021650590999968 ], [ 19.447490134000134, 9.016077610000082 ], [ 19.478769650000061, 9.013023646000022 ], [ 19.513884106000035, 9.022052302000077 ], [ 19.545300658000087, 9.025367224000092 ], [ 19.573510927000029, 9.032712583000091 ], [ 19.602911783000081, 9.024520406000022 ], [ 19.639729295000109, 9.023991337000041 ], [ 19.678219197000146, 9.030236352000088 ], [ 19.706149215000039, 9.037187294000034 ], [ 19.728850883000064, 9.048779882000133 ], [ 19.764945880000084, 9.056408804000057 ], [ 19.803424494000069, 9.057200255000112 ], [ 19.835256598000058, 9.059473117000039 ], [ 19.861758734000091, 9.065929339999968 ], [ 19.886124512000151, 9.066796329000056 ], [ 19.917136667000079, 9.072951879000072 ], [ 19.942649176000032, 9.086764141000174 ], [ 19.978520126000092, 9.098174 ], [ 20.010151699000119, 9.115180929000189 ], [ 20.039568083000063, 9.135592846000065 ], [ 20.084766577000039, 9.136104093000142 ], [ 20.104612982000162, 9.151668030000167 ], [ 20.14068361, 9.137863859999982 ], [ 20.169855528000028, 9.139434641000037 ], [ 20.205459068000096, 9.148549545000151 ], [ 20.248757293000153, 9.133437442000059 ], [ 20.275867286000164, 9.122155002 ], [ 20.303675889000033, 9.122316862000105 ], [ 20.332919626000034, 9.126210594000042 ], [ 20.35867196300012, 9.120205173000045 ], [ 20.379197922000174, 9.139998068000011 ], [ 20.403016312000034, 9.151589595000132 ], [ 20.432610413000077, 9.151105591000089 ], [ 20.458415099000149, 9.185136783000132 ], [ 20.474687991999986, 9.212520045000076 ], [ 20.504071774000124, 9.233049976000075 ], [ 20.497664153000073, 9.276339771000153 ], [ 20.519574037000154, 9.310098339000035 ], [ 20.544154368000079, 9.334303215999967 ], [ 20.573777292000102, 9.330216890000088 ], [ 20.607601527000156, 9.317182354000067 ], [ 20.645834370000102, 9.31607515200011 ], [ 20.652095431000077, 9.342658675000052 ], [ 20.655690098999969, 9.372212181000179 ], [ 20.669496014000174, 9.39789822400013 ], [ 20.699276036000015, 9.398615666000126 ], [ 20.73271187500012, 9.401496876000124 ], [ 20.7709832540001, 9.419653109000024 ], [ 20.799976463000121, 9.440361288000076 ], [ 20.825489764000167, 9.43950930699998 ], [ 20.837318226999969, 9.476528266000059 ], [ 20.862927765999984, 9.48763790300012 ], [ 20.874959891000174, 9.512745159000076 ], [ 20.904664946000082, 9.523200114000133 ], [ 20.921229574000051, 9.547331551000013 ], [ 20.949048564000179, 9.577254644000107 ], [ 20.95511525500001, 9.612665958000093 ], [ 20.980602659000169, 9.627702040000031 ], [ 20.994194875000176, 9.665631734000044 ], [ 20.991797829000063, 9.692640478000101 ], [ 21.000256465000064, 9.716684758000042 ], [ 20.991355742, 9.747314654000036 ], [ 21.022069885000121, 9.731421498999964 ], [ 21.031275657000151, 9.75672609500009 ], [ 21.054654255, 9.772763517000101 ], [ 21.087618267000039, 9.781148442000074 ], [ 21.112666376000163, 9.795755024000186 ], [ 21.117209596, 9.821704869000143 ], [ 21.129269674999989, 9.846940687000028 ], [ 21.152133656000046, 9.872728552000069 ], [ 21.186044404000086, 9.894708693000155 ], [ 21.203467243000034, 9.919990902000109 ], [ 21.216692688000023, 9.94867403000012 ], [ 21.244910152000045, 9.971589484000106 ], [ 21.260586245000127, 9.993053171999975 ], [ 21.296316345000037, 9.978077338000105 ], [ 21.337434976000054, 9.968168924000054 ], [ 21.365661008000075, 9.983937219999973 ], [ 21.390879676, 9.999338170000101 ], [ 21.402374935000182, 10.024542222000036 ], [ 21.412073499000087, 10.05045283200019 ], [ 21.433321137000064, 10.063464189000172 ], [ 21.447482647000072, 10.094799697000099 ], [ 21.457506312000135, 10.131105325000078 ], [ 21.476245725000183, 10.159922176000066 ], [ 21.495973123000113, 10.187629754000056 ], [ 21.516484713000125, 10.208116810000149 ], [ 21.550192243000026, 10.221232159000067 ], [ 21.58699099200004, 10.215401445000055 ], [ 21.61027072700017, 10.222697385000117 ], [ 21.640577372000166, 10.233887660000107 ], [ 21.669486934000133, 10.248474005000048 ], [ 21.690449124000111, 10.28203717100007 ], [ 21.720589010000083, 10.301059505000126 ], [ 21.734039127000131, 10.327397934999965 ], [ 21.726108263000128, 10.352627720000044 ], [ 21.737411676000022, 10.375863307999964 ], [ 21.751704874000097, 10.39917514300015 ], [ 21.762477035000131, 10.42583800400007 ], [ 21.753651397000169, 10.451479539000104 ], [ 21.736371441000188, 10.475351917000182 ], [ 21.716289729000039, 10.498040600000081 ], [ 21.718498594000096, 10.525791102000085 ], [ 21.728089203000081, 10.56268723400018 ], [ 21.728475278000133, 10.607861154000091 ], [ 21.733050727000034, 10.644269539000106 ], [ 21.759988219999968, 10.648256692000018 ], [ 21.782591017000072, 10.667489078000074 ], [ 21.786101580000036, 10.694960202 ], [ 21.787479561000112, 10.72373624100004 ], [ 21.786782156000015, 10.757682259000148 ], [ 21.788989295000135, 10.790430751000088 ], [ 21.808952317000035, 10.810987671000134 ], [ 21.823037394000096, 10.834238228000174 ], [ 21.862100605000023, 10.843330141000081 ], [ 21.891561772000045, 10.859896408000054 ], [ 21.930533223, 10.880822704000082 ], [ 21.964758568000036, 10.889354225000147 ], [ 21.993759010000076, 10.903805240000054 ], [ 22.017367092000143, 10.924892410999973 ], [ 22.041986129000065, 10.933251313000085 ], [ 22.069762388000129, 10.918203801000118 ], [ 22.098212439000179, 10.925276281000151 ], [ 22.128307771000152, 10.928058201999988 ], [ 22.153622326000118, 10.912046595000106 ], [ 22.183036179000112, 10.907632002000128 ], [ 22.215004031000149, 10.917879725000091 ], [ 22.247659749000093, 10.921699870000054 ], [ 22.284404364000011, 10.920980558000053 ], [ 22.306148957000175, 10.93406416900018 ], [ 22.329123823000089, 10.94339675000009 ], [ 22.351741630000163, 10.956564693000075 ], [ 22.388747958000181, 10.967376926000043 ], [ 22.427429002, 10.981832262000069 ], [ 22.464054789000102, 10.997677943000099 ], [ 22.491513089000023, 11.002534283000102 ], [ 22.51703589300007, 11.012652269000057 ], [ 22.546603079000079, 11.0007837120001 ], [ 22.58419879700017, 10.996693204000053 ], [ 22.621047468000029, 10.999186251000026 ], [ 22.644985215000077, 10.991838881000149 ], [ 22.674293386000045, 10.986899636000089 ], [ 22.711995530000081, 10.979317303000073 ], [ 22.73977123200018, 10.975858918000029 ], [ 22.765100838000023, 10.953413795000131 ], [ 22.799895031000062, 10.947097891000169 ], [ 22.835036658999968, 10.94085089500004 ], [ 22.875102232000074, 10.940785987000027 ], [ 22.889853034000055, 10.96566185000006 ], [ 22.898141929000076, 10.993069631000026 ], [ 22.906406949000029, 11.019481546000179 ], [ 22.914178520000121, 11.046153998000079 ], [ 22.921408949000181, 11.071346614000163 ], [ 22.929145741000127, 11.096524816000112 ], [ 22.943866761000095, 11.128234956000142 ], [ 22.958320473000185, 11.159203061000142 ], [ 22.97386189000008, 11.192876313000056 ], [ 22.986734888000058, 11.230102008000188 ], [ 22.982044803000065, 11.27003986200009 ], [ 22.979227054999967, 11.30470247400018 ], [ 22.940657952000095, 11.318561572000078 ], [ 22.934879088000116, 11.360151017000135 ], [ 22.936704796000186, 11.389465670000106 ], [ 22.941571575000069, 11.41919493 ], [ 22.91091770800017, 11.423512805000144 ], [ 22.883610352000062, 11.421266495999987 ], [ 22.855797505, 11.419030897000027 ], [ 22.818607075000045, 11.415301311000178 ], [ 22.784535543, 11.414968535000185 ], [ 22.777197772000136, 11.451011421000032 ], [ 22.746990745000062, 11.481443525000032 ], [ 22.710089260000075, 11.498112356000149 ], [ 22.682093382000062, 11.508317905000183 ], [ 22.659112952999976, 11.517393108000078 ], [ 22.633904267, 11.537482979000117 ], [ 22.606915684000114, 11.56658493499998 ], [ 22.592353333000062, 11.588386584999967 ], [ 22.575796842000159, 11.6112377 ], [ 22.559170634000111, 11.631600734000187 ], [ 22.558589391000055, 11.665986254000074 ], [ 22.556810413000164, 11.693429979000143 ], [ 22.561953419000076, 11.733641093000074 ], [ 22.569669753000085, 11.784491906000142 ], [ 22.577077529000178, 11.823892938000029 ], [ 22.582971982000174, 11.854118554000138 ], [ 22.595967242000029, 11.903078588000142 ], [ 22.610460799000066, 11.950998446000028 ], [ 22.625499891000061, 12.003935643000034 ], [ 22.645583648000127, 12.061820554000121 ], [ 22.58703829500007, 12.06186491200009 ], [ 22.492812339000068, 12.023407796000072 ], [ 22.477141958000118, 12.053948299000069 ], [ 22.485395302000029, 12.08765838100004 ], [ 22.489618968000059, 12.112660314000038 ], [ 22.494046800000149, 12.147352190000049 ], [ 22.490005833, 12.183262650000131 ], [ 22.475823865000052, 12.225840040000151 ], [ 22.453714359000173, 12.268065679000074 ], [ 22.4440457930001, 12.304471004 ], [ 22.435546581000096, 12.331607851000115 ], [ 22.431394794000084, 12.366829219000067 ], [ 22.42380026800015, 12.395284685000092 ], [ 22.402698101000055, 12.419007088000114 ], [ 22.375173394, 12.440220314000044 ], [ 22.386752169000147, 12.464205367000147 ], [ 22.401069100000029, 12.489299314000107 ], [ 22.424994655000148, 12.512005907000116 ], [ 22.441169946000059, 12.543113935000065 ], [ 22.476023984, 12.632159868000031 ], [ 22.448318255000117, 12.637171102000082 ], [ 22.418176117000144, 12.644774926000025 ], [ 22.328776850000054, 12.675893171000041 ], [ 22.206509708000169, 12.751643878000039 ], [ 22.20088806300015, 12.712108699000169 ], [ 22.1679649350001, 12.679591495000125 ], [ 22.129023975000109, 12.663405906000037 ], [ 22.092929266000112, 12.657214237000119 ], [ 22.057395439000175, 12.651797488000057 ], [ 22.032176134999986, 12.648223887000029 ], [ 22.004505000000108, 12.643916127000125 ], [ 21.968414287000087, 12.637969352000027 ], [ 21.93409744500002, 12.64803578100009 ], [ 21.911454741999989, 12.675220545000172 ], [ 21.890496921000135, 12.695216085000084 ], [ 21.865198916000111, 12.727036364000071 ], [ 21.859078633000081, 12.761800091999987 ], [ 21.839103430000137, 12.785474842000042 ], [ 21.815398422000044, 12.808919896000134 ], [ 21.840602211000089, 12.833053024000094 ], [ 21.856542182999988, 12.870208216000037 ], [ 21.864034074000017, 12.895526983000138 ], [ 21.876781909999977, 12.919346859000143 ], [ 21.88695492800008, 12.95804916000003 ], [ 21.904979649000097, 12.994292148000113 ], [ 21.928218833000187, 13.023553786999969 ], [ 21.927094407000084, 13.048556554000072 ], [ 21.94392506100013, 13.06713922199998 ], [ 21.978619854000101, 13.085153294000122 ], [ 22.00179914000006, 13.110984184000074 ], [ 22.022894434000023, 13.140536928000131 ], [ 22.066580180000074, 13.147222076000105 ], [ 22.092493386000115, 13.165028024000037 ], [ 22.124917264000032, 13.168515254999988 ], [ 22.152678415000082, 13.198582230000056 ], [ 22.174168595000026, 13.224664695000115 ], [ 22.189511904000085, 13.251984690000086 ], [ 22.217549038000129, 13.278004043000067 ], [ 22.241085726000165, 13.302696594000111 ], [ 22.265005318000078, 13.329956508000123 ], [ 22.282712995000168, 13.347398478000173 ], [ 22.287325464000105, 13.373098629000083 ], [ 22.277150590000076, 13.396545012000161 ], [ 22.260423274000175, 13.416951035000011 ], [ 22.247790640000176, 13.440453212000136 ], [ 22.232539183000085, 13.467476057 ], [ 22.219064104000097, 13.494930579000027 ], [ 22.220770234000042, 13.532562895000126 ], [ 22.206954947000099, 13.556184552000161 ], [ 22.192123477000052, 13.576612034000107 ], [ 22.166100250000113, 13.599236060000123 ], [ 22.142421477000141, 13.635668112000019 ], [ 22.120267333000129, 13.67583017000004 ], [ 22.126615467000136, 13.700813937000135 ], [ 22.123626915000102, 13.731908259000022 ], [ 22.101249837000125, 13.757135419000122 ], [ 22.137758186000042, 13.853981430000147 ], [ 22.199160987000084, 13.917696221000142 ], [ 22.225471726000023, 13.946055366999985 ], [ 22.298376633000146, 13.981982893000122 ], [ 22.323356783, 14.012496857000087 ], [ 22.361866548000023, 14.023264836000124 ], [ 22.404132873000094, 14.05336582100017 ], [ 22.439672697000105, 14.068919028000153 ], [ 22.463045420000128, 14.080707807000067 ], [ 22.487821568000015, 14.108271098000102 ], [ 22.513707377000173, 14.115658342000074 ], [ 22.540149120000137, 14.122017675000166 ], [ 22.555126938, 14.155916901000126 ], [ 22.56997857000016, 14.190248599000029 ], [ 22.547633193000024, 14.218560255000057 ], [ 22.515339121000181, 14.239207811000085 ], [ 22.482242504999988, 14.247754012000144 ], [ 22.450452669000128, 14.269553565000024 ], [ 22.426559435000115, 14.303038272000094 ], [ 22.454738566000117, 14.33556657500003 ], [ 22.436954651000121, 14.379261894000081 ], [ 22.432241912000165, 14.405837120000172 ], [ 22.439532585000052, 14.435612679000087 ], [ 22.441446888000087, 14.46146642500014 ], [ 22.437364967000121, 14.491091173000086 ], [ 22.413551035000069, 14.50634048600017 ], [ 22.387751509000054, 14.514660506000041 ], [ 22.389851423000096, 14.540852561000122 ], [ 22.405079773000125, 14.584894556999984 ], [ 22.448909424000078, 14.607432117000144 ], [ 22.474211827999966, 14.628440001000172 ], [ 22.502338523999981, 14.640865175000044 ], [ 22.545866733000082, 14.648541493000153 ], [ 22.580895557000076, 14.653456505000065 ], [ 22.718538973000136, 14.694584280000072 ], [ 22.711446383, 14.728123974000141 ], [ 22.672225143000105, 14.863653311 ], [ 22.716485754000189, 14.897280949000105 ], [ 22.751127151000162, 14.916710513999988 ], [ 22.752701388000105, 14.962542224000117 ], [ 22.779349825000111, 14.992557608000084 ], [ 22.796523676000106, 15.01050444599997 ], [ 22.819542315000149, 15.034349476000102 ], [ 22.854573029000107, 15.058889101000091 ], [ 22.876355523000143, 15.084479943000076 ], [ 22.901375396000049, 15.091566466000131 ], [ 22.932986243000073, 15.102441402000181 ], [ 22.933186093000131, 15.141724647000046 ], [ 22.945142278000048, 15.173173255000108 ], [ 22.96717879900018, 15.185544592000042 ], [ 22.982485173999976, 15.209210343 ], [ 23.001074224000092, 15.230451272000039 ], [ 22.990813494000065, 15.259437498000125 ], [ 22.991466737000167, 15.289893727000049 ], [ 23.002280561000191, 15.3146477250001 ], [ 22.993006944000172, 15.349424198000065 ], [ 22.992976529000032, 15.398510341000076 ], [ 22.97441588900017, 15.431244157000094 ], [ 22.95385276900015, 15.448812250000174 ], [ 22.931089735000057, 15.468630397000084 ], [ 22.922923439000101, 15.498627412000019 ], [ 22.927000200000123, 15.529927813000029 ], [ 22.934560909000027, 15.557575446999977 ], [ 22.965205003000108, 15.581259829000146 ], [ 22.987430577000168, 15.592142716000069 ], [ 23.003106112000182, 15.610796561000143 ], [ 23.029699732000154, 15.62736475700018 ], [ 23.049020666000047, 15.652250484000149 ], [ 23.073944963000031, 15.669278582000061 ], [ 23.099627795000174, 15.69873869900016 ], [ 23.126779620000093, 15.718838382000115 ], [ 23.15400877899998, 15.716140280000161 ], [ 23.179650625000079, 15.711659215000054 ], [ 23.20693011600008, 15.712739487000078 ], [ 23.237912015000177, 15.70523716200006 ], [ 23.272166771000059, 15.701653641000121 ], [ 23.309304813000153, 15.692582707000099 ], [ 23.340882362000116, 15.685171492 ], [ 23.371796097000072, 15.690252904000147 ], [ 23.405710108000108, 15.697717130000115 ], [ 23.433008109000014, 15.705448103000037 ], [ 23.460105367000153, 15.715678201 ], [ 23.483765168000104, 15.729539596 ], [ 23.525902096000095, 15.743122711000069 ], [ 23.560865844000034, 15.751436967000188 ], [ 23.608936874000165, 15.756198564999977 ], [ 23.665002609000055, 15.760674994999988 ], [ 23.727540214000157, 15.749977618000173 ], [ 23.808716670000138, 15.753186898000138 ], [ 23.853664695000077, 15.741682792000063 ], [ 23.892456637000066, 15.725508243000149 ], [ 23.939159117000145, 15.717440052000029 ], [ 23.9722308260001, 15.709866554000143 ], [ 24.000517637000144, 15.710531859000184 ], [ 24.001943710999967, 15.755597207000164 ], [ 24.003309033000164, 15.818664129000126 ] ] ] } }
]
}
