{
"type": "FeatureCollection",
"name": "tcd_admincapitals",
"crs": { "type": "name", "properties": { "name": "urn:ogc:def:crs:OGC:1.3:CRS84" } },
"features": [
{ "type": "Feature", "properties": { "adm_p_lvl": 2, "name": "Abdi", "name_1": null, "name_2": null, "name_3": null, "loc_pcode": null, "x_coord": 21.2951, "y_coord": 12.80663, "adm3_name": "<Null>", "adm3_name1": null, "adm3_name2": null, "adm3_name3": null, "adm3_pcode": "<Null>", "adm2_name": "Abdi", "adm2_name1": null, "adm2_name2": null, "adm2_name3": null, "adm2_pcode": "TD1402", "adm1_name": "Ouaddai", "adm1_name1": null, "adm1_name2": null, "adm1_name3": null, "adm1_pcode": "TD14", "adm0_name": "Chad", "adm0_name1": null, "adm0_name2": null, "adm0_name3": null, "adm0_pcode": "TD", "valid_on": "2025-02-03", "valid_to": null, "version": "v01", "name_lng": null, "name_lng1": null, "name_lng2": null, "name_lng3": null }, "geometry": { "type": "Point", "coordinates": [ 21.2951, 12.80663 ] } },
{ "type": "Feature", "properties": { "adm_p_lvl": 1, "name": "Abeche", "name_1": null, "name_2": null, "name_3": null, "loc_pcode": null, "x_coord": 20.82866, "y_coord": 13.84925, "adm3_name": "<Null>", "adm3_name1": null, "adm3_name2": null, "adm3_name3": null, "adm3_pcode": "<Null>", "adm2_name": "Ouara", "adm2_name1": null, "adm2_name2": null, "adm2_name3": null, "adm2_pcode": "TD1401", "adm1_name": "Ouaddai", "adm1_name1": null, "adm1_name2": null, "adm1_name3": null, "adm1_pcode": "TD14", "adm0_name": "Chad", "adm0_name1": null, "adm0_name2": null, "adm0_name3": null, "adm0_pcode": "TD", "valid_on": "2025-02-03", "valid_to": null, "version": "v01", "name_lng": null, "name_lng1": null, "name_lng2": null, "name_lng3": null }, "geometry": { "type": "Point", "coordinates": [ 20.82866, 13.849250000000154 ] } },
{ "type": "Feature", "properties": { "adm_p_lvl": 2, "name": "Aboudeia", "name_1": null, "name_2": null, "name_3": null, "loc_pcode": null, "x_coord": 19.296, "y_coord": 11.456, "adm3_name": "<Null>", "adm3_name1": null, "adm3_name2": null, "adm3_name3": null, "adm3_pcode": "<Null>", "adm2_name": "Aboudeia", "adm2_name1": null, "adm2_name2": null, "adm2_name3": null, "adm2_pcode": "TD1502", "adm1_name": "Salamat", "adm1_name1": null, "adm1_name2": null, "adm1_name3": null, "adm1_pcode": "TD15", "adm0_name": "Chad", "adm0_name1": null, "adm0_name2": null, "adm0_name3": null, "adm0_pcode": "TD", "valid_on": "2025-02-03", "valid_to": null, "version": "v01", "name_lng": null, "name_lng1": null, "name_lng2": null, "name_lng3": null }, "geometry": { "type": "Point", "coordinates": [ 19.296000000000106, 11.456 ] } },
{ "type": "Feature", "properties": { "adm_p_lvl": 2, "name": "Adre", "name_1": null, "name_2": null, "name_3": null, "loc_pcode": null, "x_coord": 22.16667, "y_coord": 13.48333, "adm3_name": "<Null>", "adm3_name1": null, "adm3_name2": null, "adm3_name3": null, "adm3_pcode": "<Null>", "adm2_name": "Assoungha", "adm2_name1": null, "adm2_name2": null, "adm2_name3": null, "adm2_pcode": "TD1403", "adm1_name": "Ouaddai", "adm1_name1": null, "adm1_name2": null, "adm1_name3": null, "adm1_pcode": "TD14", "adm0_name": "Chad", "adm0_name1": null, "adm0_name2": null, "adm0_name3": null, "adm0_pcode": "TD", "valid_on": "2025-02-03", "valid_to": null, "version": "v01", "name_lng": null, "name_lng1": null, "name_lng2": null, "name_lng3": null }, "geometry": { "type": "Point", "coordinates": [ 22.166670000000181, 13.48333 ] } },
{ "type": "Feature", "properties": { "adm_p_lvl": 2, "name": "Am Dam", "name_1": null, "name_2": null, "name_3": null, "loc_pcode": null, "x_coord": 20.48333, "y_coord": 12.76667, "adm3_name": "<Null>", "adm3_name1": null, "adm3_name2": null, "adm3_name3": null, "adm3_pcode": "<Null>", "adm2_name": "Djourf Al Ahmar", "adm2_name1": null, "adm2_name2": null, "adm2_name3": null, "adm2_pcode": "TD2102", "adm1_name": "Sila", "adm1_name1": null, "adm1_name2": null, "adm1_name3": null, "adm1_pcode": "TD21", "adm0_name": "Chad", "adm0_name1": null, "adm0_name2": null, "adm0_name3": null, "adm0_pcode": "TD", "valid_on": "2025-02-03", "valid_to": null, "version": "v01", "name_lng": null, "name_lng1": null, "name_lng2": null, "name_lng3": null }, "geometry": { "type": "Point", "coordinates": [ 20.48333, 12.76667 ] } },
{ "type": "Feature", "properties": { "adm_p_lvl": 1, "name": "Am Timan", "name_1": null, "name_2": null, "name_3": null, "loc_pcode": null, "x_coord": 20.28797, "y_coord": 11.044749, "adm3_name": "<Null>", "adm3_name1": null, "adm3_name2": null, "adm3_name3": null, "adm3_pcode": "<Null>", "adm2_name": "Bahr Azoum", "adm2_name1": null, "adm2_name2": null, "adm2_name3": null, "adm2_pcode": "TD1501", "adm1_name": "Salamat", "adm1_name1": null, "adm1_name2": null, "adm1_name3": null, "adm1_pcode": "TD15", "adm0_name": "Chad", "adm0_name1": null, "adm0_name2": null, "adm0_name3": null, "adm0_pcode": "TD", "valid_on": "2025-02-03", "valid_to": null, "version": "v01", "name_lng": null, "name_lng1": null, "name_lng2": null, "name_lng3": null }, "geometry": { "type": "Point", "coordinates": [ 20.28797, 11.044749 ] } },
{ "type": "Feature", "properties": { "adm_p_lvl": 1, "name": "Amdarass", "name_1": null, "name_2": null, "name_3": null, "loc_pcode": null, "x_coord": 22.83333, "y_coord": 15.96667, "adm3_name": "<Null>", "adm3_name1": null, "adm3_name2": null, "adm3_name3": null, "adm3_pcode": "<Null>", "adm2_name": "Wadi Hawar", "adm2_name1": null, "adm2_name2": null, "adm2_name3": null, "adm2_pcode": "TD2002", "adm1_name": "Ennedi-Est", "adm1_name1": null, "adm1_name2": null, "adm1_name3": null, "adm1_pcode": "TD20", "adm0_name": "Chad", "adm0_name1": null, "adm0_name2": null, "adm0_name3": null, "adm0_pcode": "TD", "valid_on": "2025-02-03", "valid_to": null, "version": "v01", "name_lng": null, "name_lng1": null, "name_lng2": null, "name_lng3": null }, "geometry": { "type": "Point", "coordinates": [ 22.833330000000103, 15.96667 ] } },
{ "type": "Feature", "properties": { "adm_p_lvl": 1, "name": "Ati", "name_1": null, "name_2": null, "name_3": null, "loc_pcode": null, "x_coord": 18.331352, "y_coord": 13.214089, "adm3_name": "<Null>", "adm3_name1": null, "adm3_name2": null, "adm3_name3": null, "adm3_pcode": "<Null>", "adm2_name": "Batha Ouest", "adm2_name1": null, "adm2_name2": null, "adm2_name3": null, "adm2_pcode": "TD0101", "adm1_name": "Batha", "adm1_name1": null, "adm1_name2": null, "adm1_name3": null, "adm1_pcode": "TD01", "adm0_name": "Chad", "adm0_name1": null, "adm0_name2": null, "adm0_name3": null, "adm0_pcode": "TD", "valid_on": "2025-02-03", "valid_to": null, "version": "v01", "name_lng": null, "name_lng1": null, "name_lng2": null, "name_lng3": null }, "geometry": { "type": "Point", "coordinates": [ 18.331352, 13.214089 ] } },
{ "type": "Feature", "properties": { "adm_p_lvl": 2, "name": "Bahay", "name_1": null, "name_2": null, "name_3": null, "loc_pcode": null, "x_coord": 22.91667, "y_coord": 15.55, "adm3_name": "<Null>", "adm3_name1": null, "adm3_name2": null, "adm3_name3": null, "adm3_pcode": "<Null>", "adm2_name": "Wadi Hawar", "adm2_name1": null, "adm2_name2": null, "adm2_name3": null, "adm2_pcode": "TD2002", "adm1_name": "Ennedi-Est", "adm1_name1": null, "adm1_name2": null, "adm1_name3": null, "adm1_pcode": "TD20", "adm0_name": "Chad", "adm0_name1": null, "adm0_name2": null, "adm0_name3": null, "adm0_pcode": "TD", "valid_on": "2025-02-03", "valid_to": null, "version": "v01", "name_lng": null, "name_lng1": null, "name_lng2": null, "name_lng3": null }, "geometry": { "type": "Point", "coordinates": [ 22.91667, 15.550000000000182 ] } },
{ "type": "Feature", "properties": { "adm_p_lvl": 2, "name": "Baibokoum", "name_1": null, "name_2": null, "name_3": null, "loc_pcode": null, "x_coord": 15.68333, "y_coord": 7.75, "adm3_name": "<Null>", "adm3_name1": null, "adm3_name2": null, "adm3_name3": null, "adm3_pcode": "<Null>", "adm2_name": "Monts de Lam", "adm2_name1": null, "adm2_name2": null, "adm2_name3": null, "adm2_pcode": "TD0906", "adm1_name": "Logone Oriental", "adm1_name1": null, "adm1_name2": null, "adm1_name3": null, "adm1_pcode": "TD09", "adm0_name": "Chad", "adm0_name1": null, "adm0_name2": null, "adm0_name3": null, "adm0_pcode": "TD", "valid_on": "2025-02-03", "valid_to": null, "version": "v01", "name_lng": null, "name_lng1": null, "name_lng2": null, "name_lng3": null }, "geometry": { "type": "Point", "coordinates": [ 15.68333, 7.75 ] } },
{ "type": "Feature", "properties": { "adm_p_lvl": 1, "name": "Bardai", "name_1": null, "name_2": null, "name_3": null, "loc_pcode": null, "x_coord": 17.03677, "y_coord": 21.36064, "adm3_name": "<Null>", "adm3_name1": null, "adm3_name2": null, "adm3_name3": null, "adm3_pcode": "<Null>", "adm2_name": "Tibesti Est", "adm2_name1": null, "adm2_name2": null, "adm2_name3": null, "adm2_pcode": "TD2201", "adm1_name": "Tibesti", "adm1_name1": null, "adm1_name2": null, "adm1_name3": null, "adm1_pcode": "TD22", "adm0_name": "Chad", "adm0_name1": null, "adm0_name2": null, "adm0_name3": null, "adm0_pcode": "TD", "valid_on": "2025-02-03", "valid_to": null, "version": "v01", "name_lng": null, "name_lng1": null, "name_lng2": null, "name_lng3": null }, "geometry": { "type": "Point", "coordinates": [ 17.036770000000161, 21.36064000000016 ] } },
{ "type": "Feature", "properties": { "adm_p_lvl": 2, "name": "Bebedjia", "name_1": null, "name_2": null, "name_3": null, "loc_pcode": null, "x_coord": 16.56667, "y_coord": 8.68333, "adm3_name": "<Null>", "adm3_name1": null, "adm3_name2": null, "adm3_name3": null, "adm3_pcode": "<Null>", "adm2_name": "La nya", "adm2_name1": null, "adm2_name2": null, "adm2_name3": null, "adm2_pcode": "TD0904", "adm1_name": "Logone Oriental", "adm1_name1": null, "adm1_name2": null, "adm1_name3": null, "adm1_pcode": "TD09", "adm0_name": "Chad", "adm0_name1": null, "adm0_name2": null, "adm0_name3": null, "adm0_pcode": "TD", "valid_on": "2025-02-03", "valid_to": null, "version": "v01", "name_lng": null, "name_lng1": null, "name_lng2": null, "name_lng3": null }, "geometry": { "type": "Point", "coordinates": [ 16.566670000000101, 8.68333 ] } },
{ "type": "Feature", "properties": { "adm_p_lvl": 2, "name": "Beboto", "name_1": null, "name_2": null, "name_3": null, "loc_pcode": null, "x_coord": 16.93333, "y_coord": 8.26667, "adm3_name": "<Null>", "adm3_name1": null, "adm3_name2": null, "adm3_name3": null, "adm3_pcode": "<Null>", "adm2_name": "Kouh Ouest", "adm2_name1": null, "adm2_name2": null, "adm2_name3": null, "adm2_pcode": "TD0903", "adm1_name": "Logone Oriental", "adm1_name1": null, "adm1_name2": null, "adm1_name3": null, "adm1_pcode": "TD09", "adm0_name": "Chad", "adm0_name1": null, "adm0_name2": null, "adm0_name3": null, "adm0_pcode": "TD", "valid_on": "2025-02-03", "valid_to": null, "version": "v01", "name_lng": null, "name_lng1": null, "name_lng2": null, "name_lng3": null }, "geometry": { "type": "Point", "coordinates": [ 16.933330000000183, 8.26667 ] } },
{ "type": "Feature", "properties": { "adm_p_lvl": 2, "name": "Bedjondo", "name_1": null, "name_2": null, "name_3": null, "loc_pcode": null, "x_coord": 17.2, "y_coord": 8.65, "adm3_name": "<Null>", "adm3_name1": null, "adm3_name2": null, "adm3_name3": null, "adm3_pcode": "<Null>", "adm2_name": "Mandoul Occidental", "adm2_name1": null, "adm2_name2": null, "adm2_name3": null, "adm2_pcode": "TD1003", "adm1_name": "Mandoul", "adm1_name1": null, "adm1_name2": null, "adm1_name3": null, "adm1_pcode": "TD10", "adm0_name": "Chad", "adm0_name1": null, "adm0_name2": null, "adm0_name3": null, "adm0_pcode": "TD", "valid_on": "2025-02-03", "valid_to": null, "version": "v01", "name_lng": null, "name_lng1": null, "name_lng2": null, "name_lng3": null }, "geometry": { "type": "Point", "coordinates": [ 17.2, 8.65 ] } },
{ "type": "Feature", "properties": { "adm_p_lvl": 2, "name": "Beinamar", "name_1": null, "name_2": null, "name_3": null, "loc_pcode": null, "x_coord": 15.38333, "y_coord": 8.66667, "adm3_name": "<Null>", "adm3_name1": null, "adm3_name2": null, "adm3_name3": null, "adm3_pcode": "<Null>", "adm2_name": "Dodje", "adm2_name1": null, "adm2_name2": null, "adm2_name3": null, "adm2_pcode": "TD0802", "adm1_name": "Logone Occidental", "adm1_name1": null, "adm1_name2": null, "adm1_name3": null, "adm1_pcode": "TD08", "adm0_name": "Chad", "adm0_name1": null, "adm0_name2": null, "adm0_name3": null, "adm0_pcode": "TD", "valid_on": "2025-02-03", "valid_to": null, "version": "v01", "name_lng": null, "name_lng1": null, "name_lng2": null, "name_lng3": null }, "geometry": { "type": "Point", "coordinates": [ 15.38333, 8.66667 ] } },
{ "type": "Feature", "properties": { "adm_p_lvl": 2, "name": "Benoye", "name_1": null, "name_2": null, "name_3": null, "loc_pcode": null, "x_coord": 16.31667, "y_coord": 8.98333, "adm3_name": "<Null>", "adm3_name1": null, "adm3_name2": null, "adm3_name3": null, "adm3_pcode": "<Null>", "adm2_name": "Ngourkosso", "adm2_name1": null, "adm2_name2": null, "adm2_name3": null, "adm2_pcode": "TD0804", "adm1_name": "Logone Occidental", "adm1_name1": null, "adm1_name2": null, "adm1_name3": null, "adm1_pcode": "TD08", "adm0_name": "Chad", "adm0_name1": null, "adm0_name2": null, "adm0_name3": null, "adm0_pcode": "TD", "valid_on": "2025-02-03", "valid_to": null, "version": "v01", "name_lng": null, "name_lng1": null, "name_lng2": null, "name_lng3": null }, "geometry": { "type": "Point", "coordinates": [ 16.316670000000158, 8.98333 ] } },
{ "type": "Feature", "properties": { "adm_p_lvl": 2, "name": "Bere", "name_1": null, "name_2": null, "name_3": null, "loc_pcode": null, "x_coord": 16.15, "y_coord": 9.33333, "adm3_name": "<Null>", "adm3_name1": null, "adm3_name2": null, "adm3_name3": null, "adm3_pcode": "<Null>", "adm2_name": "Tandjile Centre", "adm2_name1": null, "adm2_name2": null, "adm2_name3": null, "adm2_pcode": "TD1603", "adm1_name": "Tandjile", "adm1_name1": null, "adm1_name2": null, "adm1_name3": null, "adm1_pcode": "TD16", "adm0_name": "Chad", "adm0_name1": null, "adm0_name2": null, "adm0_name3": null, "adm0_pcode": "TD", "valid_on": "2025-02-03", "valid_to": null, "version": "v01", "name_lng": null, "name_lng1": null, "name_lng2": null, "name_lng3": null }, "geometry": { "type": "Point", "coordinates": [ 16.15, 9.333330000000103 ] } },
{ "type": "Feature", "properties": { "adm_p_lvl": 1, "name": "Biltine", "name_1": null, "name_2": null, "name_3": null, "loc_pcode": null, "x_coord": 20.975476, "y_coord": 14.49341, "adm3_name": "<Null>", "adm3_name1": null, "adm3_name2": null, "adm3_name3": null, "adm3_pcode": "<Null>", "adm2_name": "Biltine", "adm2_name1": null, "adm2_name2": null, "adm2_name3": null, "adm2_pcode": "TD1701", "adm1_name": "Wadi Fira", "adm1_name1": null, "adm1_name2": null, "adm1_name3": null, "adm1_pcode": "TD17", "adm0_name": "Chad", "adm0_name1": null, "adm0_name2": null, "adm0_name3": null, "adm0_pcode": "TD", "valid_on": "2025-02-03", "valid_to": null, "version": "v01", "name_lng": null, "name_lng1": null, "name_lng2": null, "name_lng3": null }, "geometry": { "type": "Point", "coordinates": [ 20.975476, 14.49341 ] } },
{ "type": "Feature", "properties": { "adm_p_lvl": 2, "name": "Binder", "name_1": null, "name_2": null, "name_3": null, "loc_pcode": null, "x_coord": 14.440471, "y_coord": 9.925199, "adm3_name": "<Null>", "adm3_name1": null, "adm3_name2": null, "adm3_name3": null, "adm3_pcode": "<Null>", "adm2_name": "Mayo-Binder", "adm2_name1": null, "adm2_name2": null, "adm2_name3": null, "adm2_pcode": "TD1203", "adm1_name": "Mayo-Kebbi Ouest", "adm1_name1": null, "adm1_name2": null, "adm1_name3": null, "adm1_pcode": "TD12", "adm0_name": "Chad", "adm0_name1": null, "adm0_name2": null, "adm0_name3": null, "adm0_pcode": "TD", "valid_on": "2025-02-03", "valid_to": null, "version": "v01", "name_lng": null, "name_lng1": null, "name_lng2": null, "name_lng3": null }, "geometry": { "type": "Point", "coordinates": [ 14.440471000000173, 9.925199 ] } },
{ "type": "Feature", "properties": { "adm_p_lvl": 2, "name": "Bodo", "name_1": null, "name_2": null, "name_3": null, "loc_pcode": null, "x_coord": 17.13333, "y_coord": 8.31667, "adm3_name": "<Null>", "adm3_name1": null, "adm3_name2": null, "adm3_name3": null, "adm3_pcode": "<Null>", "adm2_name": "Kouh Est", "adm2_name1": null, "adm2_name2": null, "adm2_name3": null, "adm2_pcode": "TD0902", "adm1_name": "Logone Oriental", "adm1_name1": null, "adm1_name2": null, "adm1_name3": null, "adm1_pcode": "TD09", "adm0_name": "Chad", "adm0_name1": null, "adm0_name2": null, "adm0_name3": null, "adm0_pcode": "TD", "valid_on": "2025-02-03", "valid_to": null, "version": "v01", "name_lng": null, "name_lng1": null, "name_lng2": null, "name_lng3": null }, "geometry": { "type": "Point", "coordinates": [ 17.13333, 8.316670000000101 ] } },
{ "type": "Feature", "properties": { "adm_p_lvl": 2, "name": "Bokoro", "name_1": null, "name_2": null, "name_3": null, "loc_pcode": null, "x_coord": 17.05, "y_coord": 12.38333, "adm3_name": "<Null>", "adm3_name1": null, "adm3_name2": null, "adm3_name3": null, "adm3_pcode": "<Null>", "adm2_name": "Dababa", "adm2_name1": null, "adm2_name2": null, "adm2_name3": null, "adm2_pcode": "TD0502", "adm1_name": "Hadjer-Lamis", "adm1_name1": null, "adm1_name2": null, "adm1_name3": null, "adm1_pcode": "TD05", "adm0_name": "Chad", "adm0_name1": null, "adm0_name2": null, "adm0_name3": null, "adm0_pcode": "TD", "valid_on": "2025-02-03", "valid_to": null, "version": "v01", "name_lng": null, "name_lng1": null, "name_lng2": null, "name_lng3": null }, "geometry": { "type": "Point", "coordinates": [ 17.05, 12.383330000000115 ] } },
{ "type": "Feature", "properties": { "adm_p_lvl": 1, "name": "Bol", "name_1": null, "name_2": null, "name_3": null, "loc_pcode": null, "x_coord": 14.809653, "y_coord": 13.557866, "adm3_name": "<Null>", "adm3_name1": null, "adm3_name2": null, "adm3_name3": null, "adm3_pcode": "<Null>", "adm2_name": "Mamdi", "adm2_name1": null, "adm2_name2": null, "adm2_name3": null, "adm2_pcode": "TD0701", "adm1_name": "Lac", "adm1_name1": null, "adm1_name2": null, "adm1_name3": null, "adm1_pcode": "TD07", "adm0_name": "Chad", "adm0_name1": null, "adm0_name2": null, "adm0_name3": null, "adm0_pcode": "TD", "valid_on": "2025-02-03", "valid_to": null, "version": "v01", "name_lng": null, "name_lng1": null, "name_lng2": null, "name_lng3": null }, "geometry": { "type": "Point", "coordinates": [ 14.809653, 13.557866 ] } },
{ "type": "Feature", "properties": { "adm_p_lvl": 1, "name": "Bongor", "name_1": null, "name_2": null, "name_3": null, "loc_pcode": null, "x_coord": 15.375, "y_coord": 10.312782, "adm3_name": "<Null>", "adm3_name1": null, "adm3_name2": null, "adm3_name3": null, "adm3_pcode": "<Null>", "adm2_name": "Mayo Boneye", "adm2_name1": null, "adm2_name2": null, "adm2_name3": null, "adm2_pcode": "TD1101", "adm1_name": "Mayo Kebbi Est", "adm1_name1": null, "adm1_name2": null, "adm1_name3": null, "adm1_pcode": "TD11", "adm0_name": "Chad", "adm0_name1": null, "adm0_name2": null, "adm0_name3": null, "adm0_pcode": "TD", "valid_on": "2025-02-03", "valid_to": null, "version": "v01", "name_lng": null, "name_lng1": null, "name_lng2": null, "name_lng3": null }, "geometry": { "type": "Point", "coordinates": [ 15.375, 10.312782 ] } },
{ "type": "Feature", "properties": { "adm_p_lvl": 2, "name": "Bousso", "name_1": null, "name_2": null, "name_3": null, "loc_pcode": null, "x_coord": 16.71667, "y_coord": 10.48333, "adm3_name": "<Null>", "adm3_name1": null, "adm3_name2": null, "adm3_name3": null, "adm3_pcode": "<Null>", "adm2_name": "Loug Chari", "adm2_name1": null, "adm2_name2": null, "adm2_name3": null, "adm2_pcode": "TD0303", "adm1_name": "Chari-Baguirmi", "adm1_name1": null, "adm1_name2": null, "adm1_name3": null, "adm1_pcode": "TD03", "adm0_name": "Chad", "adm0_name1": null, "adm0_name2": null, "adm0_name3": null, "adm0_pcode": "TD", "valid_on": "2025-02-03", "valid_to": null, "version": "v01", "name_lng": null, "name_lng1": null, "name_lng2": null, "name_lng3": null }, "geometry": { "type": "Point", "coordinates": [ 16.71667, 10.48333 ] } },
{ "type": "Feature", "properties": { "adm_p_lvl": 2, "name": "Cheddra", "name_1": null, "name_2": null, "name_3": null, "loc_pcode": null, "x_coord": 16.05, "y_coord": 13.33333, "adm3_name": "<Null>", "adm3_name1": null, "adm3_name2": null, "adm3_name3": null, "adm3_pcode": "<Null>", "adm2_name": "Barh-El-Gazel Ouest", "adm2_name1": null, "adm2_name2": null, "adm2_name3": null, "adm2_pcode": "TD1903", "adm1_name": "Barh-El-Gazel", "adm1_name1": null, "adm1_name2": null, "adm1_name3": null, "adm1_pcode": "TD19", "adm0_name": "Chad", "adm0_name1": null, "adm0_name2": null, "adm0_name3": null, "adm0_pcode": "TD", "valid_on": "2025-02-03", "valid_to": null, "version": "v01", "name_lng": null, "name_lng1": null, "name_lng2": null, "name_lng3": null }, "geometry": { "type": "Point", "coordinates": [ 16.05, 13.33333 ] } },
{ "type": "Feature", "properties": { "adm_p_lvl": 1, "name": "Doba", "name_1": null, "name_2": null, "name_3": null, "loc_pcode": null, "x_coord": 16.851012, "y_coord": 8.661302, "adm3_name": "<Null>", "adm3_name1": null, "adm3_name2": null, "adm3_name3": null, "adm3_pcode": "<Null>", "adm2_name": "La Pende", "adm2_name1": null, "adm2_name2": null, "adm2_name3": null, "adm2_pcode": "TD0901", "adm1_name": "Logone Oriental", "adm1_name1": null, "adm1_name2": null, "adm1_name3": null, "adm1_pcode": "TD09", "adm0_name": "Chad", "adm0_name1": null, "adm0_name2": null, "adm0_name3": null, "adm0_pcode": "TD", "valid_on": "2025-02-03", "valid_to": null, "version": "v01", "name_lng": null, "name_lng1": null, "name_lng2": null, "name_lng3": null }, "geometry": { "type": "Point", "coordinates": [ 16.851012, 8.661302000000148 ] } },
{ "type": "Feature", "properties": { "adm_p_lvl": 1, "name": "Fada", "name_1": null, "name_2": null, "name_3": null, "loc_pcode": null, "x_coord": 21.5105, "y_coord": 17.12314, "adm3_name": "<Null>", "adm3_name1": null, "adm3_name2": null, "adm3_name3": null, "adm3_pcode": "<Null>", "adm2_name": "Fada", "adm2_name1": null, "adm2_name2": null, "adm2_name3": null, "adm2_pcode": "TD2301", "adm1_name": "Ennedi Ouest", "adm1_name1": null, "adm1_name2": null, "adm1_name3": null, "adm1_pcode": "TD23", "adm0_name": "Chad", "adm0_name1": null, "adm0_name2": null, "adm0_name3": null, "adm0_pcode": "TD", "valid_on": "2025-02-03", "valid_to": null, "version": "v01", "name_lng": null, "name_lng1": null, "name_lng2": null, "name_lng3": null }, "geometry": { "type": "Point", "coordinates": [ 21.5105, 17.123140000000149 ] } },
{ "type": "Feature", "properties": { "adm_p_lvl": 1, "name": "Faya Largeau", "name_1": null, "name_2": null, "name_3": null, "loc_pcode": null, "x_coord": 19.11553, "y_coord": 17.88569, "adm3_name": "<Null>", "adm3_name1": null, "adm3_name2": null, "adm3_name3": null, "adm3_pcode": "<Null>", "adm2_name": "Borkou Yala", "adm2_name1": null, "adm2_name2": null, "adm2_name3": null, "adm2_pcode": "TD0202", "adm1_name": "Borkou", "adm1_name1": null, "adm1_name2": null, "adm1_name3": null, "adm1_pcode": "TD02", "adm0_name": "Chad", "adm0_name1": null, "adm0_name2": null, "adm0_name3": null, "adm0_pcode": "TD", "valid_on": "2025-02-03", "valid_to": null, "version": "v01", "name_lng": null, "name_lng1": null, "name_lng2": null, "name_lng3": null }, "geometry": { "type": "Point", "coordinates": [ 19.11553, 17.885690000000125 ] } },
{ "type": "Feature", "properties": { "adm_p_lvl": 2, "name": "Fianga", "name_1": null, "name_2": null, "name_3": null, "loc_pcode": null, "x_coord": 15.15, "y_coord": 9.91667, "adm3_name": "<Null>", "adm3_name1": null, "adm3_name2": null, "adm3_name3": null, "adm3_pcode": "<Null>", "adm2_name": "Mont Illi", "adm2_name1": null, "adm2_name2": null, "adm2_name3": null, "adm2_pcode": "TD1104", "adm1_name": "Mayo Kebbi Est", "adm1_name1": null, "adm1_name2": null, "adm1_name3": null, "adm1_pcode": "TD11", "adm0_name": "Chad", "adm0_name1": null, "adm0_name2": null, "adm0_name3": null, "adm0_pcode": "TD", "valid_on": "2025-02-03", "valid_to": null, "version": "v01", "name_lng": null, "name_lng1": null, "name_lng2": null, "name_lng3": null }, "geometry": { "type": "Point", "coordinates": [ 15.15, 9.916670000000124 ] } },
{ "type": "Feature", "properties": { "adm_p_lvl": 2, "name": "Gore", "name_1": null, "name_2": null, "name_3": null, "loc_pcode": null, "x_coord": 16.63333, "y_coord": 7.91667, "adm3_name": "<Null>", "adm3_name1": null, "adm3_name2": null, "adm3_name3": null, "adm3_pcode": "<Null>", "adm2_name": "La Nya Pende", "adm2_name1": null, "adm2_name2": null, "adm2_name3": null, "adm2_pcode": "TD0905", "adm1_name": "Logone Oriental", "adm1_name1": null, "adm1_name2": null, "adm1_name3": null, "adm1_pcode": "TD09", "adm0_name": "Chad", "adm0_name1": null, "adm0_name2": null, "adm0_name3": null, "adm0_pcode": "TD", "valid_on": "2025-02-03", "valid_to": null, "version": "v01", "name_lng": null, "name_lng1": null, "name_lng2": null, "name_lng3": null }, "geometry": { "type": "Point", "coordinates": [ 16.633330000000171, 7.916670000000181 ] } },
{ "type": "Feature", "properties": { "adm_p_lvl": 2, "name": "Gounou Gaya", "name_1": null, "name_2": null, "name_3": null, "loc_pcode": null, "x_coord": 15.5, "y_coord": 9.63333, "adm3_name": "<Null>", "adm3_name1": null, "adm3_name2": null, "adm3_name3": null, "adm3_pcode": "<Null>", "adm2_name": "La Kabbia", "adm2_name1": null, "adm2_name2": null, "adm2_name3": null, "adm2_pcode": "TD1102", "adm1_name": "Mayo Kebbi Est", "adm1_name1": null, "adm1_name2": null, "adm1_name3": null, "adm1_pcode": "TD11", "adm0_name": "Chad", "adm0_name1": null, "adm0_name2": null, "adm0_name3": null, "adm0_pcode": "TD", "valid_on": "2025-02-03", "valid_to": null, "version": "v01", "name_lng": null, "name_lng1": null, "name_lng2": null, "name_lng3": null }, "geometry": { "type": "Point", "coordinates": [ 15.500000000000114, 9.633330000000115 ] } },
{ "type": "Feature", "properties": { "adm_p_lvl": 1, "name": "Goz Beida", "name_1": null, "name_2": null, "name_3": null, "loc_pcode": null, "x_coord": 21.41667, "y_coord": 12.71667, "adm3_name": "<Null>", "adm3_name1": null, "adm3_name2": null, "adm3_name3": null, "adm3_pcode": "<Null>", "adm2_name": "Kimiti", "adm2_name1": null, "adm2_name2": null, "adm2_name3": null, "adm2_pcode": "TD2101", "adm1_name": "Sila", "adm1_name1": null, "adm1_name2": null, "adm1_name3": null, "adm1_pcode": "TD21", "adm0_name": "Chad", "adm0_name1": null, "adm0_name2": null, "adm0_name3": null, "adm0_pcode": "TD", "valid_on": "2025-02-03", "valid_to": null, "version": "v01", "name_lng": null, "name_lng1": null, "name_lng2": null, "name_lng3": null }, "geometry": { "type": "Point", "coordinates": [ 21.416670000000124, 12.71667 ] } },
{ "type": "Feature", "properties": { "adm_p_lvl": 2, "name": "Guelengdeng", "name_1": null, "name_2": null, "name_3": null, "loc_pcode": null, "x_coord": 15.553, "y_coord": 10.912, "adm3_name": "<Null>", "adm3_name1": null, "adm3_name2": null, "adm3_name3": null, "adm3_pcode": "<Null>", "adm2_name": "Mayo Lemye", "adm2_name1": null, "adm2_name2": null, "adm2_name3": null, "adm2_pcode": "TD1103", "adm1_name": "Mayo Kebbi Est", "adm1_name1": null, "adm1_name2": null, "adm1_name3": null, "adm1_pcode": "TD11", "adm0_name": "Chad", "adm0_name1": null, "adm0_name2": null, "adm0_name3": null, "adm0_pcode": "TD", "valid_on": "2025-02-03", "valid_to": null, "version": "v01", "name_lng": null, "name_lng1": null, "name_lng2": null, "name_lng3": null }, "geometry": { "type": "Point", "coordinates": [ 15.553, 10.912 ] } },
{ "type": "Feature", "properties": { "adm_p_lvl": 2, "name": "Guereda", "name_1": null, "name_2": null, "name_3": null, "loc_pcode": null, "x_coord": 22.08333, "y_coord": 14.51667, "adm3_name": "<Null>", "adm3_name1": null, "adm3_name2": null, "adm3_name3": null, "adm3_pcode": "<Null>", "adm2_name": "Dar Tama", "adm2_name1": null, "adm2_name2": null, "adm2_name3": null, "adm2_pcode": "TD1702", "adm1_name": "Wadi Fira", "adm1_name1": null, "adm1_name2": null, "adm1_name3": null, "adm1_pcode": "TD17", "adm0_name": "Chad", "adm0_name1": null, "adm0_name2": null, "adm0_name3": null, "adm0_pcode": "TD", "valid_on": "2025-02-03", "valid_to": null, "version": "v01", "name_lng": null, "name_lng1": null, "name_lng2": null, "name_lng3": null }, "geometry": { "type": "Point", "coordinates": [ 22.08333, 14.51667 ] } },
{ "type": "Feature", "properties": { "adm_p_lvl": 2, "name": "Haraze Mangueigne", "name_1": null, "name_2": null, "name_3": null, "loc_pcode": null, "x_coord": 20.8, "y_coord": 9.91667, "adm3_name": "<Null>", "adm3_name1": null, "adm3_name2": null, "adm3_name3": null, "adm3_pcode": "<Null>", "adm2_name": "Haraze Mangueigne", "adm2_name1": null, "adm2_name2": null, "adm2_name3": null, "adm2_pcode": "TD1503", "adm1_name": "Salamat", "adm1_name1": null, "adm1_name2": null, "adm1_name3": null, "adm1_pcode": "TD15", "adm0_name": "Chad", "adm0_name1": null, "adm0_name2": null, "adm0_name3": null, "adm0_pcode": "TD", "valid_on": "2025-02-03", "valid_to": null, "version": "v01", "name_lng": null, "name_lng1": null, "name_lng2": null, "name_lng3": null }, "geometry": { "type": "Point", "coordinates": [ 20.800000000000182, 9.916670000000124 ] } },
{ "type": "Feature", "properties": { "adm_p_lvl": 2, "name": "Iriba", "name_1": null, "name_2": null, "name_3": null, "loc_pcode": null, "x_coord": 22.25, "y_coord": 15.11667, "adm3_name": "<Null>", "adm3_name1": null, "adm3_name2": null, "adm3_name3": null, "adm3_pcode": "<Null>", "adm2_name": "Iriba", "adm2_name1": null, "adm2_name2": null, "adm2_name3": null, "adm2_pcode": "TD1703", "adm1_name": "Wadi Fira", "adm1_name1": null, "adm1_name2": null, "adm1_name3": null, "adm1_pcode": "TD17", "adm0_name": "Chad", "adm0_name1": null, "adm0_name2": null, "adm0_name3": null, "adm0_pcode": "TD", "valid_on": "2025-02-03", "valid_to": null, "version": "v01", "name_lng": null, "name_lng1": null, "name_lng2": null, "name_lng3": null }, "geometry": { "type": "Point", "coordinates": [ 22.250000000000171, 15.116670000000113 ] } },
{ "type": "Feature", "properties": { "adm_p_lvl": 2, "name": "Kalaat", "name_1": null, "name_2": null, "name_3": null, "loc_pcode": null, "x_coord": 20.90139, "y_coord": 15.84556, "adm3_name": "<Null>", "adm3_name1": null, "adm3_name2": null, "adm3_name3": null, "adm3_pcode": "<Null>", "adm2_name": "Mourtcha", "adm2_name1": null, "adm2_name2": null, "adm2_name3": null, "adm2_pcode": "TD2303", "adm1_name": "Ennedi Ouest", "adm1_name1": null, "adm1_name2": null, "adm1_name3": null, "adm1_pcode": "TD23", "adm0_name": "Chad", "adm0_name1": null, "adm0_name2": null, "adm0_name3": null, "adm0_pcode": "TD", "valid_on": "2025-02-03", "valid_to": null, "version": "v01", "name_lng": null, "name_lng1": null, "name_lng2": null, "name_lng3": null }, "geometry": { "type": "Point", "coordinates": [ 20.90139, 15.845560000000148 ] } },
{ "type": "Feature", "properties": { "adm_p_lvl": 2, "name": "Kelo", "name_1": null, "name_2": null, "name_3": null, "loc_pcode": null, "x_coord": 15.8, "y_coord": 9.31667, "adm3_name": "<Null>", "adm3_name1": null, "adm3_name2": null, "adm3_name3": null, "adm3_pcode": "<Null>", "adm2_name": "Tandjile Ouest", "adm2_name1": null, "adm2_name2": null, "adm2_name3": null, "adm2_pcode": "TD1602", "adm1_name": "Tandjile", "adm1_name1": null, "adm1_name2": null, "adm1_name3": null, "adm1_pcode": "TD16", "adm0_name": "Chad", "adm0_name1": null, "adm0_name2": null, "adm0_name3": null, "adm0_pcode": "TD", "valid_on": "2025-02-03", "valid_to": null, "version": "v01", "name_lng": null, "name_lng1": null, "name_lng2": null, "name_lng3": null }, "geometry": { "type": "Point", "coordinates": [ 15.800000000000125, 9.316670000000101 ] } },
{ "type": "Feature", "properties": { "adm_p_lvl": 2, "name": "Kirdimi", "name_1": null, "name_2": null, "name_3": null, "loc_pcode": null, "x_coord": 18.51667, "y_coord": 18.16667, "adm3_name": "<Null>", "adm3_name1": null, "adm3_name2": null, "adm3_name3": null, "adm3_pcode": "<Null>", "adm2_name": "Borkou Yala", "adm2_name1": null, "adm2_name2": null, "adm2_name3": null, "adm2_pcode": "TD0202", "adm1_name": "Borkou", "adm1_name1": null, "adm1_name2": null, "adm1_name3": null, "adm1_pcode": "TD02", "adm0_name": "Chad", "adm0_name1": null, "adm0_name2": null, "adm0_name3": null, "adm0_pcode": "TD", "valid_on": "2025-02-03", "valid_to": null, "version": "v01", "name_lng": null, "name_lng1": null, "name_lng2": null, "name_lng3": null }, "geometry": { "type": "Point", "coordinates": [ 18.516670000000147, 18.16667 ] } },
{ "type": "Feature", "properties": { "adm_p_lvl": 1, "name": "Koumra", "name_1": null, "name_2": null, "name_3": null, "loc_pcode": null, "x_coord": 17.555, "y_coord": 8.915833, "adm3_name": "<Null>", "adm3_name1": null, "adm3_name2": null, "adm3_name3": null, "adm3_pcode": "<Null>", "adm2_name": "Mandoul Oriental", "adm2_name1": null, "adm2_name2": null, "adm2_name3": null, "adm2_pcode": "TD1001", "adm1_name": "Mandoul", "adm1_name1": null, "adm1_name2": null, "adm1_name3": null, "adm1_pcode": "TD10", "adm0_name": "Chad", "adm0_name1": null, "adm0_name2": null, "adm0_name3": null, "adm0_pcode": "TD", "valid_on": "2025-02-03", "valid_to": null, "version": "v01", "name_lng": null, "name_lng1": null, "name_lng2": null, "name_lng3": null }, "geometry": { "type": "Point", "coordinates": [ 17.555000000000121, 8.915833 ] } },
{ "type": "Feature", "properties": { "adm_p_lvl": 2, "name": "Krim Krim", "name_1": null, "name_2": null, "name_3": null, "loc_pcode": null, "x_coord": 15.8, "y_coord": 8.96667, "adm3_name": "<Null>", "adm3_name1": null, "adm3_name2": null, "adm3_name3": null, "adm3_pcode": "<Null>", "adm2_name": "Gueni", "adm2_name1": null, "adm2_name2": null, "adm2_name3": null, "adm2_pcode": "TD0803", "adm1_name": "Logone Occidental", "adm1_name1": null, "adm1_name2": null, "adm1_name3": null, "adm1_pcode": "TD08", "adm0_name": "Chad", "adm0_name1": null, "adm0_name2": null, "adm0_name3": null, "adm0_pcode": "TD", "valid_on": "2025-02-03", "valid_to": null, "version": "v01", "name_lng": null, "name_lng1": null, "name_lng2": null, "name_lng3": null }, "geometry": { "type": "Point", "coordinates": [ 15.800000000000125, 8.96667 ] } },
{ "type": "Feature", "properties": { "adm_p_lvl": 2, "name": "Kyabe", "name_1": null, "name_2": null, "name_3": null, "loc_pcode": null, "x_coord": 18.91667, "y_coord": 9.43333, "adm3_name": "<Null>", "adm3_name1": null, "adm3_name2": null, "adm3_name3": null, "adm3_pcode": "<Null>", "adm2_name": "Lac Iro", "adm2_name1": null, "adm2_name2": null, "adm2_name3": null, "adm2_pcode": "TD1303", "adm1_name": "Moyen-Chari", "adm1_name1": null, "adm1_name2": null, "adm1_name3": null, "adm1_pcode": "TD13", "adm0_name": "Chad", "adm0_name1": null, "adm0_name2": null, "adm0_name3": null, "adm0_pcode": "TD", "valid_on": "2025-02-03", "valid_to": null, "version": "v01", "name_lng": null, "name_lng1": null, "name_lng2": null, "name_lng3": null }, "geometry": { "type": "Point", "coordinates": [ 18.916670000000124, 9.43333 ] } },
{ "type": "Feature", "properties": { "adm_p_lvl": 1, "name": "Lai", "name_1": null, "name_2": null, "name_3": null, "loc_pcode": null, "x_coord": 16.32372, "y_coord": 9.37046, "adm3_name": "<Null>", "adm3_name1": null, "adm3_name2": null, "adm3_name3": null, "adm3_pcode": "<Null>", "adm2_name": "Tandjile Est", "adm2_name1": null, "adm2_name2": null, "adm2_name3": null, "adm2_pcode": "TD1601", "adm1_name": "Tandjile", "adm1_name1": null, "adm1_name2": null, "adm1_name3": null, "adm1_pcode": "TD16", "adm0_name": "Chad", "adm0_name1": null, "adm0_name2": null, "adm0_name3": null, "adm0_pcode": "TD", "valid_on": "2025-02-03", "valid_to": null, "version": "v01", "name_lng": null, "name_lng1": null, "name_lng2": null, "name_lng3": null }, "geometry": { "type": "Point", "coordinates": [ 16.32372, 9.37046 ] } },
{ "type": "Feature", "properties": { "adm_p_lvl": 2, "name": "Lere", "name_1": null, "name_2": null, "name_3": null, "loc_pcode": null, "x_coord": 14.21667, "y_coord": 9.65, "adm3_name": "<Null>", "adm3_name1": null, "adm3_name2": null, "adm3_name3": null, "adm3_pcode": "<Null>", "adm2_name": "Lac Lere", "adm2_name1": null, "adm2_name2": null, "adm2_name3": null, "adm2_pcode": "TD1202", "adm1_name": "Mayo-Kebbi Ouest", "adm1_name1": null, "adm1_name2": null, "adm1_name3": null, "adm1_pcode": "TD12", "adm0_name": "Chad", "adm0_name1": null, "adm0_name2": null, "adm0_name3": null, "adm0_pcode": "TD", "valid_on": "2025-02-03", "valid_to": null, "version": "v01", "name_lng": null, "name_lng1": null, "name_lng2": null, "name_lng3": null }, "geometry": { "type": "Point", "coordinates": [ 14.21667, 9.65 ] } },
{ "type": "Feature", "properties": { "adm_p_lvl": 2, "name": "Mandelia", "name_1": null, "name_2": null, "name_3": null, "loc_pcode": null, "x_coord": 15.25, "y_coord": 11.71667, "adm3_name": "<Null>", "adm3_name1": null, "adm3_name2": null, "adm3_name3": null, "adm3_pcode": "<Null>", "adm2_name": "Chari", "adm2_name1": null, "adm2_name2": null, "adm2_name3": null, "adm2_pcode": "TD0302", "adm1_name": "Chari-Baguirmi", "adm1_name1": null, "adm1_name2": null, "adm1_name3": null, "adm1_pcode": "TD03", "adm0_name": "Chad", "adm0_name1": null, "adm0_name2": null, "adm0_name3": null, "adm0_pcode": "TD", "valid_on": "2025-02-03", "valid_to": null, "version": "v01", "name_lng": null, "name_lng1": null, "name_lng2": null, "name_lng3": null }, "geometry": { "type": "Point", "coordinates": [ 15.250000000000171, 11.71667 ] } },
{ "type": "Feature", "properties": { "adm_p_lvl": 2, "name": "Mangalme", "name_1": null, "name_2": null, "name_3": null, "loc_pcode": null, "x_coord": 19.61667, "y_coord": 12.35, "adm3_name": "<Null>", "adm3_name1": null, "adm3_name2": null, "adm3_name3": null, "adm3_pcode": "<Null>", "adm2_name": "Mangalme", "adm2_name1": null, "adm2_name2": null, "adm2_name3": null, "adm2_pcode": "TD0404", "adm1_name": "Guera", "adm1_name1": null, "adm1_name2": null, "adm1_name3": null, "adm1_pcode": "TD04", "adm0_name": "Chad", "adm0_name1": null, "adm0_name2": null, "adm0_name3": null, "adm0_pcode": "TD", "valid_on": "2025-02-03", "valid_to": null, "version": "v01", "name_lng": null, "name_lng1": null, "name_lng2": null, "name_lng3": null }, "geometry": { "type": "Point", "coordinates": [ 19.61667, 12.35 ] } },
{ "type": "Feature", "properties": { "adm_p_lvl": 1, "name": "Mao", "name_1": null, "name_2": null, "name_3": null, "loc_pcode": null, "x_coord": 15.314873, "y_coord": 14.125684, "adm3_name": "<Null>", "adm3_name1": null, "adm3_name2": null, "adm3_name3": null, "adm3_pcode": "<Null>", "adm2_name": "Kanem", "adm2_name1": null, "adm2_name2": null, "adm2_name3": null, "adm2_pcode": "TD0601", "adm1_name": "Kanem", "adm1_name1": null, "adm1_name2": null, "adm1_name3": null, "adm1_pcode": "TD06", "adm0_name": "Chad", "adm0_name1": null, "adm0_name2": null, "adm0_name3": null, "adm0_pcode": "TD", "valid_on": "2025-02-03", "valid_to": null, "version": "v01", "name_lng": null, "name_lng1": null, "name_lng2": null, "name_lng3": null }, "geometry": { "type": "Point", "coordinates": [ 15.314873000000148, 14.125684 ] } },
{ "type": "Feature", "properties": { "adm_p_lvl": 2, "name": "Maro", "name_1": null, "name_2": null, "name_3": null, "loc_pcode": null, "x_coord": 18.76667, "y_coord": 8.41667, "adm3_name": "<Null>", "adm3_name1": null, "adm3_name2": null, "adm3_name3": null, "adm3_pcode": "<Null>", "adm2_name": "Grande Sido", "adm2_name1": null, "adm2_name2": null, "adm2_name3": null, "adm2_pcode": "TD1302", "adm1_name": "Moyen-Chari", "adm1_name1": null, "adm1_name2": null, "adm1_name3": null, "adm1_pcode": "TD13", "adm0_name": "Chad", "adm0_name1": null, "adm0_name2": null, "adm0_name3": null, "adm0_pcode": "TD", "valid_on": "2025-02-03", "valid_to": null, "version": "v01", "name_lng": null, "name_lng1": null, "name_lng2": null, "name_lng3": null }, "geometry": { "type": "Point", "coordinates": [ 18.76667, 8.41667 ] } },
{ "type": "Feature", "properties": { "adm_p_lvl": 2, "name": "Massaguet", "name_1": null, "name_2": null, "name_3": null, "loc_pcode": null, "x_coord": 15.45, "y_coord": 12.41667, "adm3_name": "<Null>", "adm3_name1": null, "adm3_name2": null, "adm3_name3": null, "adm3_pcode": "<Null>", "adm2_name": "Haraze Al Biar", "adm2_name1": null, "adm2_name2": null, "adm2_name3": null, "adm2_pcode": "TD0503", "adm1_name": "Hadjer-Lamis", "adm1_name1": null, "adm1_name2": null, "adm1_name3": null, "adm1_pcode": "TD05", "adm0_name": "Chad", "adm0_name1": null, "adm0_name2": null, "adm0_name3": null, "adm0_pcode": "TD", "valid_on": "2025-02-03", "valid_to": null, "version": "v01", "name_lng": null, "name_lng1": null, "name_lng2": null, "name_lng3": null }, "geometry": { "type": "Point", "coordinates": [ 15.45, 12.416670000000181 ] } },
{ "type": "Feature", "properties": { "adm_p_lvl": 1, "name": "Massakory", "name_1": null, "name_2": null, "name_3": null, "loc_pcode": null, "x_coord": 15.7325, "y_coord": 12.99722, "adm3_name": "<Null>", "adm3_name1": null, "adm3_name2": null, "adm3_name3": null, "adm3_pcode": "<Null>", "adm2_name": "Dagana", "adm2_name1": null, "adm2_name2": null, "adm2_name3": null, "adm2_pcode": "TD0501", "adm1_name": "Hadjer-Lamis", "adm1_name1": null, "adm1_name2": null, "adm1_name3": null, "adm1_pcode": "TD05", "adm0_name": "Chad", "adm0_name1": null, "adm0_name2": null, "adm0_name3": null, "adm0_pcode": "TD", "valid_on": "2025-02-03", "valid_to": null, "version": "v01", "name_lng": null, "name_lng1": null, "name_lng2": null, "name_lng3": null }, "geometry": { "type": "Point", "coordinates": [ 15.732500000000186, 12.99722 ] } },
{ "type": "Feature", "properties": { "adm_p_lvl": 1, "name": "Massenya", "name_1": null, "name_2": null, "name_3": null, "loc_pcode": null, "x_coord": 16.182775, "y_coord": 11.406111, "adm3_name": "<Null>", "adm3_name1": null, "adm3_name2": null, "adm3_name3": null, "adm3_pcode": "<Null>", "adm2_name": "Baguirmi", "adm2_name1": null, "adm2_name2": null, "adm2_name3": null, "adm2_pcode": "TD0301", "adm1_name": "Chari-Baguirmi", "adm1_name1": null, "adm1_name2": null, "adm1_name3": null, "adm1_pcode": "TD03", "adm0_name": "Chad", "adm0_name1": null, "adm0_name2": null, "adm0_name3": null, "adm0_pcode": "TD", "valid_on": "2025-02-03", "valid_to": null, "version": "v01", "name_lng": null, "name_lng1": null, "name_lng2": null, "name_lng3": null }, "geometry": { "type": "Point", "coordinates": [ 16.182775, 11.406111000000124 ] } },
{ "type": "Feature", "properties": { "adm_p_lvl": 2, "name": "Melfi", "name_1": null, "name_2": null, "name_3": null, "loc_pcode": null, "x_coord": 17.93333, "y_coord": 11.06667, "adm3_name": "<Null>", "adm3_name1": null, "adm3_name2": null, "adm3_name3": null, "adm3_pcode": "<Null>", "adm2_name": "Barh Signaka", "adm2_name1": null, "adm2_name2": null, "adm2_name3": null, "adm2_pcode": "TD0403", "adm1_name": "Guera", "adm1_name1": null, "adm1_name2": null, "adm1_name3": null, "adm1_pcode": "TD04", "adm0_name": "Chad", "adm0_name1": null, "adm0_name2": null, "adm0_name3": null, "adm0_pcode": "TD", "valid_on": "2025-02-03", "valid_to": null, "version": "v01", "name_lng": null, "name_lng1": null, "name_lng2": null, "name_lng3": null }, "geometry": { "type": "Point", "coordinates": [ 17.933330000000126, 11.066670000000101 ] } },
{ "type": "Feature", "properties": { "adm_p_lvl": 2, "name": "Moissala", "name_1": null, "name_2": null, "name_3": null, "loc_pcode": null, "x_coord": 17.76667, "y_coord": 8.35, "adm3_name": "<Null>", "adm3_name1": null, "adm3_name2": null, "adm3_name3": null, "adm3_pcode": "<Null>", "adm2_name": "Barh Sara", "adm2_name1": null, "adm2_name2": null, "adm2_name3": null, "adm2_pcode": "TD1002", "adm1_name": "Mandoul", "adm1_name1": null, "adm1_name2": null, "adm1_name3": null, "adm1_pcode": "TD10", "adm0_name": "Chad", "adm0_name1": null, "adm0_name2": null, "adm0_name3": null, "adm0_pcode": "TD", "valid_on": "2025-02-03", "valid_to": null, "version": "v01", "name_lng": null, "name_lng1": null, "name_lng2": null, "name_lng3": null }, "geometry": { "type": "Point", "coordinates": [ 17.766670000000147, 8.35 ] } },
{ "type": "Feature", "properties": { "adm_p_lvl": 2, "name": "Mondo", "name_1": null, "name_2": null, "name_3": null, "loc_pcode": null, "x_coord": 15.541, "y_coord": 13.779, "adm3_name": "<Null>", "adm3_name1": null, "adm3_name2": null, "adm3_name3": null, "adm3_pcode": "<Null>", "adm2_name": "Wadi Bissam", "adm2_name1": null, "adm2_name2": null, "adm2_name3": null, "adm2_pcode": "TD0603", "adm1_name": "Kanem", "adm1_name1": null, "adm1_name2": null, "adm1_name3": null, "adm1_pcode": "TD06", "adm0_name": "Chad", "adm0_name1": null, "adm0_name2": null, "adm0_name3": null, "adm0_pcode": "TD", "valid_on": "2025-02-03", "valid_to": null, "version": "v01", "name_lng": null, "name_lng1": null, "name_lng2": null, "name_lng3": null }, "geometry": { "type": "Point", "coordinates": [ 15.541000000000167, 13.779 ] } },
{ "type": "Feature", "properties": { "adm_p_lvl": 1, "name": "Mongo", "name_1": null, "name_2": null, "name_3": null, "loc_pcode": null, "x_coord": 18.702943, "y_coord": 12.185041, "adm3_name": "<Null>", "adm3_name1": null, "adm3_name2": null, "adm3_name3": null, "adm3_pcode": "<Null>", "adm2_name": "Guera", "adm2_name1": null, "adm2_name2": null, "adm2_name3": null, "adm2_pcode": "TD0401", "adm1_name": "Guera", "adm1_name1": null, "adm1_name2": null, "adm1_name3": null, "adm1_pcode": "TD04", "adm0_name": "Chad", "adm0_name1": null, "adm0_name2": null, "adm0_name3": null, "adm0_pcode": "TD", "valid_on": "2025-02-03", "valid_to": null, "version": "v01", "name_lng": null, "name_lng1": null, "name_lng2": null, "name_lng3": null }, "geometry": { "type": "Point", "coordinates": [ 18.702943, 12.185041 ] } },
{ "type": "Feature", "properties": { "adm_p_lvl": 2, "name": "Mortcha", "name_1": null, "name_2": null, "name_3": null, "loc_pcode": null, "x_coord": 21.16667, "y_coord": 16.0, "adm3_name": "<Null>", "adm3_name1": null, "adm3_name2": null, "adm3_name3": null, "adm3_pcode": "<Null>", "adm2_name": "Mourtcha", "adm2_name1": null, "adm2_name2": null, "adm2_name3": null, "adm2_pcode": "TD2303", "adm1_name": "Ennedi Ouest", "adm1_name1": null, "adm1_name2": null, "adm1_name3": null, "adm1_pcode": "TD23", "adm0_name": "Chad", "adm0_name1": null, "adm0_name2": null, "adm0_name3": null, "adm0_pcode": "TD", "valid_on": "2025-02-03", "valid_to": null, "version": "v01", "name_lng": null, "name_lng1": null, "name_lng2": null, "name_lng3": null }, "geometry": { "type": "Point", "coordinates": [ 21.16667, 16.000000000000171 ] } },
{ "type": "Feature", "properties": { "adm_p_lvl": 1, "name": "Moundou", "name_1": null, "name_2": null, "name_3": null, "loc_pcode": null, "x_coord": 16.064717, "y_coord": 8.600473, "adm3_name": "<Null>", "adm3_name1": null, "adm3_name2": null, "adm3_name3": null, "adm3_pcode": "<Null>", "adm2_name": "Lac Wey", "adm2_name1": null, "adm2_name2": null, "adm2_name3": null, "adm2_pcode": "TD0801", "adm1_name": "Logone Occidental", "adm1_name1": null, "adm1_name2": null, "adm1_name3": null, "adm1_pcode": "TD08", "adm0_name": "Chad", "adm0_name1": null, "adm0_name2": null, "adm0_name3": null, "adm0_pcode": "TD", "valid_on": "2025-02-03", "valid_to": null, "version": "v01", "name_lng": null, "name_lng1": null, "name_lng2": null, "name_lng3": null }, "geometry": { "type": "Point", "coordinates": [ 16.064717, 8.600473 ] } },
{ "type": "Feature", "properties": { "adm_p_lvl": 1, "name": "Moussoro", "name_1": null, "name_2": null, "name_3": null, "loc_pcode": null, "x_coord": 16.50877, "y_coord": 13.57103, "adm3_name": "<Null>", "adm3_name1": null, "adm3_name2": null, "adm3_name3": null, "adm3_pcode": "<Null>", "adm2_name": "Barh-El-Gazel Sud", "adm2_name1": null, "adm2_name2": null, "adm2_name3": null, "adm2_pcode": "TD1901", "adm1_name": "Barh-El-Gazel", "adm1_name1": null, "adm1_name2": null, "adm1_name3": null, "adm1_pcode": "TD19", "adm0_name": "Chad", "adm0_name1": null, "adm0_name2": null, "adm0_name3": null, "adm0_pcode": "TD", "valid_on": "2025-02-03", "valid_to": null, "version": "v01", "name_lng": null, "name_lng1": null, "name_lng2": null, "name_lng3": null }, "geometry": { "type": "Point", "coordinates": [ 16.50877, 13.571030000000121 ] } },
{ "type": "Feature", "properties": { "adm_p_lvl": 0, "name": "N'Djamena", "name_1": null, "name_2": null, "name_3": null, "loc_pcode": null, "x_coord": 15.07595, "y_coord": 12.115066, "adm3_name": "<Null>", "adm3_name1": null, "adm3_name2": null, "adm3_name3": null, "adm3_pcode": "<Null>", "adm2_name": "N'Djamena", "adm2_name1": null, "adm2_name2": null, "adm2_name3": null, "adm2_pcode": "TD1801", "adm1_name": "N'Djamena", "adm1_name1": null, "adm1_name2": null, "adm1_name3": null, "adm1_pcode": "TD18", "adm0_name": "Chad", "adm0_name1": null, "adm0_name2": null, "adm0_name3": null, "adm0_pcode": "TD", "valid_on": "2025-02-03", "valid_to": null, "version": "v01", "name_lng": null, "name_lng1": null, "name_lng2": null, "name_lng3": null }, "geometry": { "type": "Point", "coordinates": [ 15.07595, 12.115066000000127 ] } },
{ "type": "Feature", "properties": { "adm_p_lvl": 2, "name": "Ngouri", "name_1": null, "name_2": null, "name_3": null, "loc_pcode": null, "x_coord": 15.36667, "y_coord": 13.63333, "adm3_name": "<Null>", "adm3_name1": null, "adm3_name2": null, "adm3_name3": null, "adm3_pcode": "<Null>", "adm2_name": "Wayi", "adm2_name1": null, "adm2_name2": null, "adm2_name3": null, "adm2_pcode": "TD0702", "adm1_name": "Lac", "adm1_name1": null, "adm1_name2": null, "adm1_name3": null, "adm1_pcode": "TD07", "adm0_name": "Chad", "adm0_name1": null, "adm0_name2": null, "adm0_name3": null, "adm0_pcode": "TD", "valid_on": "2025-02-03", "valid_to": null, "version": "v01", "name_lng": null, "name_lng1": null, "name_lng2": null, "name_lng3": null }, "geometry": { "type": "Point", "coordinates": [ 15.36667, 13.63333 ] } },
{ "type": "Feature", "properties": { "adm_p_lvl": 2, "name": "Nokou", "name_1": null, "name_2": null, "name_3": null, "loc_pcode": null, "x_coord": 14.782, "y_coord": 14.574, "adm3_name": "<Null>", "adm3_name1": null, "adm3_name2": null, "adm3_name3": null, "adm3_pcode": "<Null>", "adm2_name": "Nord Kanem", "adm2_name1": null, "adm2_name2": null, "adm2_name3": null, "adm2_pcode": "TD0602", "adm1_name": "Kanem", "adm1_name1": null, "adm1_name2": null, "adm1_name3": null, "adm1_pcode": "TD06", "adm0_name": "Chad", "adm0_name1": null, "adm0_name2": null, "adm0_name3": null, "adm0_pcode": "TD", "valid_on": "2025-02-03", "valid_to": null, "version": "v01", "name_lng": null, "name_lng1": null, "name_lng2": null, "name_lng3": null }, "geometry": { "type": "Point", "coordinates": [ 14.782, 14.574000000000183 ] } },
{ "type": "Feature", "properties": { "adm_p_lvl": 2, "name": "Oum Hadjer", "name_1": null, "name_2": null, "name_3": null, "loc_pcode": null, "x_coord": 19.68333, "y_coord": 13.3, "adm3_name": "<Null>", "adm3_name1": null, "adm3_name2": null, "adm3_name3": null, "adm3_pcode": "<Null>", "adm2_name": "Batha Est", "adm2_name1": null, "adm2_name2": null, "adm2_name3": null, "adm2_pcode": "TD0102", "adm1_name": "Batha", "adm1_name1": null, "adm1_name2": null, "adm1_name3": null, "adm1_pcode": "TD01", "adm0_name": "Chad", "adm0_name1": null, "adm0_name2": null, "adm0_name3": null, "adm0_pcode": "TD", "valid_on": "2025-02-03", "valid_to": null, "version": "v01", "name_lng": null, "name_lng1": null, "name_lng2": null, "name_lng3": null }, "geometry": { "type": "Point", "coordinates": [ 19.683330000000126, 13.3 ] } },
{ "type": "Feature", "properties": { "adm_p_lvl": 1, "name": "Pala", "name_1": null, "name_2": null, "name_3": null, "loc_pcode": null, "x_coord": 14.916359, "y_coord": 9.342494, "adm3_name": "<Null>", "adm3_name1": null, "adm3_name2": null, "adm3_name3": null, "adm3_pcode": "<Null>", "adm2_name": "Mayo Dallah", "adm2_name1": null, "adm2_name2": null, "adm2_name3": null, "adm2_pcode": "TD1201", "adm1_name": "Mayo-Kebbi Ouest", "adm1_name1": null, "adm1_name2": null, "adm1_name3": null, "adm1_pcode": "TD12", "adm0_name": "Chad", "adm0_name1": null, "adm0_name2": null, "adm0_name3": null, "adm0_pcode": "TD", "valid_on": "2025-02-03", "valid_to": null, "version": "v01", "name_lng": null, "name_lng1": null, "name_lng2": null, "name_lng3": null }, "geometry": { "type": "Point", "coordinates": [ 14.916359, 9.342494 ] } },
{ "type": "Feature", "properties": { "adm_p_lvl": 2, "name": "Salal", "name_1": null, "name_2": null, "name_3": null, "loc_pcode": null, "x_coord": 17.219999, "y_coord": 14.84, "adm3_name": "<Null>", "adm3_name1": null, "adm3_name2": null, "adm3_name3": null, "adm3_pcode": "<Null>", "adm2_name": "Barh-El-Gazel Nord", "adm2_name1": null, "adm2_name2": null, "adm2_name3": null, "adm2_pcode": "TD1902", "adm1_name": "Barh-El-Gazel", "adm1_name1": null, "adm1_name2": null, "adm1_name3": null, "adm1_pcode": "TD19", "adm0_name": "Chad", "adm0_name1": null, "adm0_name2": null, "adm0_name3": null, "adm0_pcode": "TD", "valid_on": "2025-02-03", "valid_to": null, "version": "v01", "name_lng": null, "name_lng1": null, "name_lng2": null, "name_lng3": null }, "geometry": { "type": "Point", "coordinates": [ 17.219999, 14.84 ] } },
{ "type": "Feature", "properties": { "adm_p_lvl": 1, "name": "Sarh", "name_1": null, "name_2": null, "name_3": null, "loc_pcode": null, "x_coord": 18.37676, "y_coord": 9.14473, "adm3_name": "<Null>", "adm3_name1": null, "adm3_name2": null, "adm3_name3": null, "adm3_pcode": "<Null>", "adm2_name": "Bahr Koh", "adm2_name1": null, "adm2_name2": null, "adm2_name3": null, "adm2_pcode": "TD1301", "adm1_name": "Moyen-Chari", "adm1_name1": null, "adm1_name2": null, "adm1_name3": null, "adm1_pcode": "TD13", "adm0_name": "Chad", "adm0_name1": null, "adm0_name2": null, "adm0_name3": null, "adm0_pcode": "TD", "valid_on": "2025-02-03", "valid_to": null, "version": "v01", "name_lng": null, "name_lng1": null, "name_lng2": null, "name_lng3": null }, "geometry": { "type": "Point", "coordinates": [ 18.376760000000104, 9.14473 ] } },
{ "type": "Feature", "properties": { "adm_p_lvl": 2, "name": "Yao", "name_1": null, "name_2": null, "name_3": null, "loc_pcode": null, "x_coord": 17.56667, "y_coord": 12.85, "adm3_name": "<Null>", "adm3_name1": null, "adm3_name2": null, "adm3_name3": null, "adm3_pcode": "<Null>", "adm2_name": "Fittri", "adm2_name1": null, "adm2_name2": null, "adm2_name3": null, "adm2_pcode": "TD0103", "adm1_name": "Batha", "adm1_name1": null, "adm1_name2": null, "adm1_name3": null, "adm1_pcode": "TD01", "adm0_name": "Chad", "adm0_name1": null, "adm0_name2": null, "adm0_name3": null, "adm0_pcode": "TD", "valid_on": "2025-02-03", "valid_to": null, "version": "v01", "name_lng": null, "name_lng1": null, "name_lng2": null, "name_lng3": null }, "geometry": { "type": "Point", "coordinates": [ 17.56667, 12.85 ] } },
{ "type": "Feature", "properties": { "adm_p_lvl": 2, "name": "Zouar", "name_1": null, "name_2": null, "name_3": null, "loc_pcode": null, "x_coord": 16.528999, "y_coord": 20.452, "adm3_name": "<Null>", "adm3_name1": null, "adm3_name2": null, "adm3_name3": null, "adm3_pcode": "<Null>", "adm2_name": "Tibesti Ouest", "adm2_name1": null, "adm2_name2": null, "adm2_name3": null, "adm2_pcode": "TD2202", "adm1_name": "Tibesti", "adm1_name1": null, "adm1_name2": null, "adm1_name3": null, "adm1_pcode": "TD22", "adm0_name": "Chad", "adm0_name1": null, "adm0_name2": null, "adm0_name3": null, "adm0_pcode": "TD", "valid_on": "2025-02-03", "valid_to": null, "version": "v01", "name_lng": null, "name_lng1": null, "name_lng2": null, "name_lng3": null }, "geometry": { "type": "Point", "coordinates": [ 16.528999000000169, 20.452 ] } }
]
}
