{
"type": "FeatureCollection",
"name": "tcd_adminpoints",
"crs": { "type": "name", "properties": { "name": "urn:ogc:def:crs:OGC:1.3:CRS84" } },
"features": [
{ "type": "Feature", "properties": { "admin_level": 0, "name": "Tchad", "name1": null, "name2": null, "name3": null, "adm0_pcode": "TCD", "adm0_name": "Tchad", "valid_on": "2025-02-12", "valid_to": null, "area_sqkm": 1265079.45209752, "version": "v01", "lang": "fr", "lang1": null, "lang2": null, "lang3": null, "y_coord": 15.45256664, "x_coord": 18.56364425, "adm1_pcode": null, "adm1_name": null, "adm1_name1": null, "adm1_name2": null, "adm1_name3": null, "adm2_pcode": null, "adm2_name": null, "adm2_name1": null, "adm2_name2": null, "adm2_name3": null }, "geometry": { "type": "Point", "coordinates": [ 18.563644249000049, 15.452566638000121 ] } },
{ "type": "Feature", "properties": { "admin_level": 1, "name": "BARH EL GAZEL", "name1": null, "name2": null, "name3": null, "adm0_pcode": "TCD", "adm0_name": "Tchad", "valid_on": "2025-02-12", "valid_to": null, "area_sqkm": 50407.837873709999, "version": "v01", "lang": "fr", "lang1": null, "lang2": null, "lang3": null, "y_coord": 14.45182128, "x_coord": 16.89782479, "adm1_pcode": "TCD19", "adm1_name": "BARH EL GAZEL", "adm1_name1": null, "adm1_name2": null, "adm1_name3": null, "adm2_pcode": null, "adm2_name": null, "adm2_name1": null, "adm2_name2": null, "adm2_name3": null }, "geometry": { "type": "Point", "coordinates": [ 16.897824790000186, 14.451821283000015 ] } },
{ "type": "Feature", "properties": { "admin_level": 1, "name": "BATHA", "name1": null, "name2": null, "name3": null, "adm0_pcode": "TCD", "adm0_name": "Tchad", "valid_on": "2025-02-12", "valid_to": null, "area_sqkm": 91075.256255560002, "version": "v01", "lang": "fr", "lang1": null, "lang2": null, "lang3": null, "y_coord": 14.30598623, "x_coord": 18.88632183, "adm1_pcode": "TCD01", "adm1_name": "BATHA", "adm1_name1": null, "adm1_name2": null, "adm1_name3": null, "adm2_pcode": null, "adm2_name": null, "adm2_name1": null, "adm2_name2": null, "adm2_name3": null }, "geometry": { "type": "Point", "coordinates": [ 18.886321828000177, 14.305986230000087 ] } },
{ "type": "Feature", "properties": { "admin_level": 1, "name": "BORKOU", "name1": null, "name2": null, "name3": null, "adm0_pcode": "TCD", "adm0_name": "Tchad", "valid_on": "2025-02-12", "valid_to": null, "area_sqkm": 148533.62427919, "version": "v01", "lang": "fr", "lang1": null, "lang2": null, "lang3": null, "y_coord": 17.07812114, "x_coord": 18.08666469, "adm1_pcode": "TCD02", "adm1_name": "BORKOU", "adm1_name1": null, "adm1_name2": null, "adm1_name3": null, "adm2_pcode": null, "adm2_name": null, "adm2_name1": null, "adm2_name2": null, "adm2_name3": null }, "geometry": { "type": "Point", "coordinates": [ 18.086664687000109, 17.078121137000039 ] } },
{ "type": "Feature", "properties": { "admin_level": 1, "name": "CHARI BAGUIRMI", "name1": null, "name2": null, "name3": null, "adm0_pcode": "TCD", "adm0_name": "Tchad", "valid_on": "2025-02-12", "valid_to": null, "area_sqkm": 45843.680589230004, "version": "v01", "lang": "fr", "lang1": null, "lang2": null, "lang3": null, "y_coord": 11.10323565, "x_coord": 16.37477972, "adm1_pcode": "TCD03", "adm1_name": "CHARI BAGUIRMI", "adm1_name1": null, "adm1_name2": null, "adm1_name3": null, "adm2_pcode": null, "adm2_name": null, "adm2_name1": null, "adm2_name2": null, "adm2_name3": null }, "geometry": { "type": "Point", "coordinates": [ 16.374779725000167, 11.103235646000087 ] } },
{ "type": "Feature", "properties": { "admin_level": 1, "name": "ENNEDI EST", "name1": null, "name2": null, "name3": null, "adm0_pcode": "TCD", "adm0_name": "Tchad", "valid_on": "2025-02-12", "valid_to": null, "area_sqkm": 83574.061454330003, "version": "v01", "lang": "fr", "lang1": null, "lang2": null, "lang3": null, "y_coord": 17.88739312, "x_coord": 23.18031726, "adm1_pcode": "TCD20", "adm1_name": "ENNEDI EST", "adm1_name1": null, "adm1_name2": null, "adm1_name3": null, "adm2_pcode": null, "adm2_name": null, "adm2_name1": null, "adm2_name2": null, "adm2_name3": null }, "geometry": { "type": "Point", "coordinates": [ 23.180317260000095, 17.887393116000169 ] } },
{ "type": "Feature", "properties": { "admin_level": 1, "name": "ENNEDI OUEST", "name1": null, "name2": null, "name3": null, "adm0_pcode": "TCD", "adm0_name": "Tchad", "valid_on": "2025-02-12", "valid_to": null, "area_sqkm": 124247.3211958, "version": "v01", "lang": "fr", "lang1": null, "lang2": null, "lang3": null, "y_coord": 18.25614896, "x_coord": 20.96239138, "adm1_pcode": "TCD23", "adm1_name": "ENNEDI OUEST", "adm1_name1": null, "adm1_name2": null, "adm1_name3": null, "adm2_pcode": null, "adm2_name": null, "adm2_name1": null, "adm2_name2": null, "adm2_name3": null }, "geometry": { "type": "Point", "coordinates": [ 20.962391381000032, 18.256148961 ] } },
{ "type": "Feature", "properties": { "admin_level": 1, "name": "GUÉRA", "name1": null, "name2": null, "name3": null, "adm0_pcode": "TCD", "adm0_name": "Tchad", "valid_on": "2025-02-12", "valid_to": null, "area_sqkm": 61034.486447919997, "version": "v01", "lang": "fr", "lang1": null, "lang2": null, "lang3": null, "y_coord": 11.45575454, "x_coord": 18.10469332, "adm1_pcode": "TCD04", "adm1_name": "GUÉRA", "adm1_name1": null, "adm1_name2": null, "adm1_name3": null, "adm2_pcode": null, "adm2_name": null, "adm2_name1": null, "adm2_name2": null, "adm2_name3": null }, "geometry": { "type": "Point", "coordinates": [ 18.104693319000035, 11.455754543000126 ] } },
{ "type": "Feature", "properties": { "admin_level": 1, "name": "HADJER LAMIS", "name1": null, "name2": null, "name3": null, "adm0_pcode": "TCD", "adm0_name": "Tchad", "valid_on": "2025-02-12", "valid_to": null, "area_sqkm": 30679.414661139999, "version": "v01", "lang": "fr", "lang1": null, "lang2": null, "lang3": null, "y_coord": 12.41976744, "x_coord": 16.09244965, "adm1_pcode": "TCD05", "adm1_name": "HADJER LAMIS", "adm1_name1": null, "adm1_name2": null, "adm1_name3": null, "adm2_pcode": null, "adm2_name": null, "adm2_name1": null, "adm2_name2": null, "adm2_name3": null }, "geometry": { "type": "Point", "coordinates": [ 16.092449648000127, 12.419767442000136 ] } },
{ "type": "Feature", "properties": { "admin_level": 1, "name": "KANEM", "name1": null, "name2": null, "name3": null, "adm0_pcode": "TCD", "adm0_name": "Tchad", "valid_on": "2025-02-12", "valid_to": null, "area_sqkm": 71334.901201529996, "version": "v01", "lang": "fr", "lang1": null, "lang2": null, "lang3": null, "y_coord": 14.91176552, "x_coord": 15.04416056, "adm1_pcode": "TCD06", "adm1_name": "KANEM", "adm1_name1": null, "adm1_name2": null, "adm1_name3": null, "adm2_pcode": null, "adm2_name": null, "adm2_name1": null, "adm2_name2": null, "adm2_name3": null }, "geometry": { "type": "Point", "coordinates": [ 15.044160561000183, 14.91176552200011 ] } },
{ "type": "Feature", "properties": { "admin_level": 1, "name": "LAC", "name1": null, "name2": null, "name3": null, "adm0_pcode": "TCD", "adm0_name": "Tchad", "valid_on": "2025-02-12", "valid_to": null, "area_sqkm": 19779.407068699998, "version": "v01", "lang": "fr", "lang1": null, "lang2": null, "lang3": null, "y_coord": 13.76871966, "x_coord": 14.15843724, "adm1_pcode": "TCD07", "adm1_name": "LAC", "adm1_name1": null, "adm1_name2": null, "adm1_name3": null, "adm2_pcode": null, "adm2_name": null, "adm2_name1": null, "adm2_name2": null, "adm2_name3": null }, "geometry": { "type": "Point", "coordinates": [ 14.158437238000033, 13.768719661999967 ] } },
{ "type": "Feature", "properties": { "admin_level": 1, "name": "LOGONE OCCIDENTAL", "name1": null, "name2": null, "name3": null, "adm0_pcode": "TCD", "adm0_name": "Tchad", "valid_on": "2025-02-12", "valid_to": null, "area_sqkm": 8861.8672528099996, "version": "v01", "lang": "fr", "lang1": null, "lang2": null, "lang3": null, "y_coord": 8.7525, "x_coord": 15.92415659, "adm1_pcode": "TCD08", "adm1_name": "LOGONE OCCIDENTAL", "adm1_name1": null, "adm1_name2": null, "adm1_name3": null, "adm2_pcode": null, "adm2_name": null, "adm2_name1": null, "adm2_name2": null, "adm2_name3": null }, "geometry": { "type": "Point", "coordinates": [ 15.92415659400001, 8.752500000000111 ] } },
{ "type": "Feature", "properties": { "admin_level": 1, "name": "LOGONE ORIENTAL", "name1": null, "name2": null, "name3": null, "adm0_pcode": "TCD", "adm0_name": "Tchad", "valid_on": "2025-02-12", "valid_to": null, "area_sqkm": 23718.113594080001, "version": "v01", "lang": "fr", "lang1": null, "lang2": null, "lang3": null, "y_coord": 8.30380928, "x_coord": 16.46270034, "adm1_pcode": "TCD09", "adm1_name": "LOGONE ORIENTAL", "adm1_name1": null, "adm1_name2": null, "adm1_name3": null, "adm2_pcode": null, "adm2_name": null, "adm2_name1": null, "adm2_name2": null, "adm2_name3": null }, "geometry": { "type": "Point", "coordinates": [ 16.462700342000119, 8.303809278000074 ] } },
{ "type": "Feature", "properties": { "admin_level": 1, "name": "MANDOUL", "name1": null, "name2": null, "name3": null, "adm0_pcode": "TCD", "adm0_name": "Tchad", "valid_on": "2025-02-12", "valid_to": null, "area_sqkm": 17406.310798039998, "version": "v01", "lang": "fr", "lang1": null, "lang2": null, "lang3": null, "y_coord": 8.73411503, "x_coord": 17.58762786, "adm1_pcode": "TCD10", "adm1_name": "MANDOUL", "adm1_name1": null, "adm1_name2": null, "adm1_name3": null, "adm2_pcode": null, "adm2_name": null, "adm2_name1": null, "adm2_name2": null, "adm2_name3": null }, "geometry": { "type": "Point", "coordinates": [ 17.587627862000033, 8.73411503 ] } },
{ "type": "Feature", "properties": { "admin_level": 1, "name": "MAYO KEBBI EST", "name1": null, "name2": null, "name3": null, "adm0_pcode": "TCD", "adm0_name": "Tchad", "valid_on": "2025-02-12", "valid_to": null, "area_sqkm": 18141.687428379999, "version": "v01", "lang": "fr", "lang1": null, "lang2": null, "lang3": null, "y_coord": 10.21517808, "x_coord": 15.80694886, "adm1_pcode": "TCD11", "adm1_name": "MAYO KEBBI EST", "adm1_name1": null, "adm1_name2": null, "adm1_name3": null, "adm2_pcode": null, "adm2_name": null, "adm2_name1": null, "adm2_name2": null, "adm2_name3": null }, "geometry": { "type": "Point", "coordinates": [ 15.806948864000049, 10.21517808100009 ] } },
{ "type": "Feature", "properties": { "admin_level": 1, "name": "MAYO KEBBI OUEST", "name1": null, "name2": null, "name3": null, "adm0_pcode": "TCD", "adm0_name": "Tchad", "valid_on": "2025-02-12", "valid_to": null, "area_sqkm": 12521.070132770001, "version": "v01", "lang": "fr", "lang1": null, "lang2": null, "lang3": null, "y_coord": 9.22485859, "x_coord": 14.86671807, "adm1_pcode": "TCD12", "adm1_name": "MAYO KEBBI OUEST", "adm1_name1": null, "adm1_name2": null, "adm1_name3": null, "adm2_pcode": null, "adm2_name": null, "adm2_name1": null, "adm2_name2": null, "adm2_name3": null }, "geometry": { "type": "Point", "coordinates": [ 14.866718074, 9.224858585999982 ] } },
{ "type": "Feature", "properties": { "admin_level": 1, "name": "MOYEN CHARI", "name1": null, "name2": null, "name3": null, "adm0_pcode": "TCD", "adm0_name": "Tchad", "valid_on": "2025-02-12", "valid_to": null, "area_sqkm": 41399.438407449998, "version": "v01", "lang": "fr", "lang1": null, "lang2": null, "lang3": null, "y_coord": 9.31512051, "x_coord": 18.86595505, "adm1_pcode": "TCD13", "adm1_name": "MOYEN CHARI", "adm1_name1": null, "adm1_name2": null, "adm1_name3": null, "adm2_pcode": null, "adm2_name": null, "adm2_name1": null, "adm2_name2": null, "adm2_name3": null }, "geometry": { "type": "Point", "coordinates": [ 18.865955053000164, 9.315120513000068 ] } },
{ "type": "Feature", "properties": { "admin_level": 1, "name": "N'DJAMENA", "name1": null, "name2": null, "name3": null, "adm0_pcode": "TCD", "adm0_name": "Tchad", "valid_on": "2025-02-12", "valid_to": null, "area_sqkm": 435.57828473000001, "version": "v01", "lang": "fr", "lang1": null, "lang2": null, "lang3": null, "y_coord": 12.12498268, "x_coord": 15.048157, "adm1_pcode": "TCD18", "adm1_name": "N'DJAMENA", "adm1_name1": null, "adm1_name2": null, "adm1_name3": null, "adm2_pcode": null, "adm2_name": null, "adm2_name1": null, "adm2_name2": null, "adm2_name3": null }, "geometry": { "type": "Point", "coordinates": [ 15.048157004000188, 12.124982679000027 ] } },
{ "type": "Feature", "properties": { "admin_level": 1, "name": "OUADDAÏ", "name1": null, "name2": null, "name3": null, "adm0_pcode": "TCD", "adm0_name": "Tchad", "valid_on": "2025-02-12", "valid_to": null, "area_sqkm": 40662.644989979999, "version": "v01", "lang": "fr", "lang1": null, "lang2": null, "lang3": null, "y_coord": 13.03227689, "x_coord": 20.59544228, "adm1_pcode": "TCD14", "adm1_name": "OUADDAÏ", "adm1_name1": null, "adm1_name2": null, "adm1_name3": null, "adm2_pcode": null, "adm2_name": null, "adm2_name1": null, "adm2_name2": null, "adm2_name3": null }, "geometry": { "type": "Point", "coordinates": [ 20.595442282000135, 13.03227689400012 ] } },
{ "type": "Feature", "properties": { "admin_level": 1, "name": "SALAMAT", "name1": null, "name2": null, "name3": null, "adm0_pcode": "TCD", "adm0_name": "Tchad", "valid_on": "2025-02-12", "valid_to": null, "area_sqkm": 67854.010798210002, "version": "v01", "lang": "fr", "lang1": null, "lang2": null, "lang3": null, "y_coord": 10.62606535, "x_coord": 20.71806075, "adm1_pcode": "TCD15", "adm1_name": "SALAMAT", "adm1_name1": null, "adm1_name2": null, "adm1_name3": null, "adm2_pcode": null, "adm2_name": null, "adm2_name1": null, "adm2_name2": null, "adm2_name3": null }, "geometry": { "type": "Point", "coordinates": [ 20.718060753000032, 10.626065346000132 ] } },
{ "type": "Feature", "properties": { "admin_level": 1, "name": "SILA", "name1": null, "name2": null, "name3": null, "adm0_pcode": "TCD", "adm0_name": "Tchad", "valid_on": "2025-02-12", "valid_to": null, "area_sqkm": 24835.02088914, "version": "v01", "lang": "fr", "lang1": null, "lang2": null, "lang3": null, "y_coord": 12.07476165, "x_coord": 21.87405436, "adm1_pcode": "TCD21", "adm1_name": "SILA", "adm1_name1": null, "adm1_name2": null, "adm1_name3": null, "adm2_pcode": null, "adm2_name": null, "adm2_name1": null, "adm2_name2": null, "adm2_name3": null }, "geometry": { "type": "Point", "coordinates": [ 21.874054361000162, 12.074761647000173 ] } },
{ "type": "Feature", "properties": { "admin_level": 1, "name": "TANDJILÉ", "name1": null, "name2": null, "name3": null, "adm0_pcode": "TCD", "adm0_name": "Tchad", "valid_on": "2025-02-12", "valid_to": null, "area_sqkm": 17497.217610029998, "version": "v01", "lang": "fr", "lang1": null, "lang2": null, "lang3": null, "y_coord": 9.648009, "x_coord": 16.65249823, "adm1_pcode": "TCD16", "adm1_name": "TANDJILÉ", "adm1_name1": null, "adm1_name2": null, "adm1_name3": null, "adm2_pcode": null, "adm2_name": null, "adm2_name1": null, "adm2_name2": null, "adm2_name3": null }, "geometry": { "type": "Point", "coordinates": [ 16.652498230000049, 9.648009000000172 ] } },
{ "type": "Feature", "properties": { "admin_level": 1, "name": "TIBESTI", "name1": null, "name2": null, "name3": null, "adm0_pcode": "TCD", "adm0_name": "Tchad", "valid_on": "2025-02-12", "valid_to": null, "area_sqkm": 213589.95991437, "version": "v01", "lang": "fr", "lang1": null, "lang2": null, "lang3": null, "y_coord": 20.17617851, "x_coord": 18.23665746, "adm1_pcode": "TCD22", "adm1_name": "TIBESTI", "adm1_name1": null, "adm1_name2": null, "adm1_name3": null, "adm2_pcode": null, "adm2_name": null, "adm2_name1": null, "adm2_name2": null, "adm2_name3": null }, "geometry": { "type": "Point", "coordinates": [ 18.236657463000029, 20.176178513000139 ] } },
{ "type": "Feature", "properties": { "admin_level": 1, "name": "WADI FIRA", "name1": null, "name2": null, "name3": null, "adm0_pcode": "TCD", "adm0_name": "Tchad", "valid_on": "2025-02-12", "valid_to": null, "area_sqkm": 51646.540970440001, "version": "v01", "lang": "fr", "lang1": null, "lang2": null, "lang3": null, "y_coord": 14.93962637, "x_coord": 21.40206508, "adm1_pcode": "TCD17", "adm1_name": "WADI FIRA", "adm1_name1": null, "adm1_name2": null, "adm1_name3": null, "adm2_pcode": null, "adm2_name": null, "adm2_name1": null, "adm2_name2": null, "adm2_name3": null }, "geometry": { "type": "Point", "coordinates": [ 21.402065077000088, 14.939626369000052 ] } },
{ "type": "Feature", "properties": { "admin_level": 2, "name": "Kouh Ouest", "name1": null, "name2": null, "name3": null, "adm0_pcode": "TCD", "adm0_name": "Tchad", "valid_on": "2025-02-12", "valid_to": null, "area_sqkm": 2082.3395683600002, "version": "v01", "lang": "fr", "lang1": null, "lang2": null, "lang3": null, "y_coord": 8.1824585, "x_coord": 16.86803673, "adm1_pcode": "TCD09", "adm1_name": "LOGONE ORIENTAL", "adm1_name1": null, "adm1_name2": null, "adm1_name3": null, "adm2_pcode": "TCD0903", "adm2_name": "Kouh Ouest", "adm2_name1": null, "adm2_name2": null, "adm2_name3": null }, "geometry": { "type": "Point", "coordinates": [ 16.868036734000043, 8.182458501000042 ] } },
{ "type": "Feature", "properties": { "admin_level": 2, "name": "Kouh Est", "name1": null, "name2": null, "name3": null, "adm0_pcode": "TCD", "adm0_name": "Tchad", "valid_on": "2025-02-12", "valid_to": null, "area_sqkm": 1543.7169680300001, "version": "v01", "lang": "fr", "lang1": null, "lang2": null, "lang3": null, "y_coord": 8.3688325, "x_coord": 17.11089014, "adm1_pcode": "TCD09", "adm1_name": "LOGONE ORIENTAL", "adm1_name1": null, "adm1_name2": null, "adm1_name3": null, "adm2_pcode": "TCD0902", "adm2_name": "Kouh Est", "adm2_name1": null, "adm2_name2": null, "adm2_name3": null }, "geometry": { "type": "Point", "coordinates": [ 17.110890138, 8.368832500000053 ] } },
{ "type": "Feature", "properties": { "admin_level": 2, "name": "Grande Sido", "name1": null, "name2": null, "name3": null, "adm0_pcode": "TCD", "adm0_name": "Tchad", "valid_on": "2025-02-12", "valid_to": null, "area_sqkm": 5489.3724682399998, "version": "v01", "lang": "fr", "lang1": null, "lang2": null, "lang3": null, "y_coord": 8.4522121, "x_coord": 18.54065196, "adm1_pcode": "TCD13", "adm1_name": "MOYEN CHARI", "adm1_name1": null, "adm1_name2": null, "adm1_name3": null, "adm2_pcode": "TCD1302", "adm2_name": "Grande Sido", "adm2_name1": null, "adm2_name2": null, "adm2_name3": null }, "geometry": { "type": "Point", "coordinates": [ 18.540651958000069, 8.452212096000096 ] } },
{ "type": "Feature", "properties": { "admin_level": 2, "name": "Mandoul Occidental", "name1": null, "name2": null, "name3": null, "adm0_pcode": "TCD", "adm0_name": "Tchad", "valid_on": "2025-02-12", "valid_to": null, "area_sqkm": 1911.3624014699999, "version": "v01", "lang": "fr", "lang1": null, "lang2": null, "lang3": null, "y_coord": 8.59938119, "x_coord": 17.2833303, "adm1_pcode": "TCD10", "adm1_name": "MANDOUL", "adm1_name1": null, "adm1_name2": null, "adm1_name3": null, "adm2_pcode": "TCD1003", "adm2_name": "Mandoul Occidental", "adm2_name1": null, "adm2_name2": null, "adm2_name3": null }, "geometry": { "type": "Point", "coordinates": [ 17.283330302000081, 8.599381188000166 ] } },
{ "type": "Feature", "properties": { "admin_level": 2, "name": "Lac wey", "name1": null, "name2": null, "name3": null, "adm0_pcode": "TCD", "adm0_name": "Tchad", "valid_on": "2025-02-12", "valid_to": null, "area_sqkm": 2885.3161843399998, "version": "v01", "lang": "fr", "lang1": null, "lang2": null, "lang3": null, "y_coord": 8.6416497, "x_coord": 15.97834237, "adm1_pcode": "TCD08", "adm1_name": "LOGONE OCCIDENTAL", "adm1_name1": null, "adm1_name2": null, "adm1_name3": null, "adm2_pcode": "TCD0801", "adm2_name": "Lac wey", "adm2_name1": null, "adm2_name2": null, "adm2_name3": null }, "geometry": { "type": "Point", "coordinates": [ 15.97834237100011, 8.641649697999981 ] } },
{ "type": "Feature", "properties": { "admin_level": 2, "name": "Djode", "name1": null, "name2": null, "name3": null, "adm0_pcode": "TCD", "adm0_name": "Tchad", "valid_on": "2025-02-12", "valid_to": null, "area_sqkm": 3272.2621707100002, "version": "v01", "lang": "fr", "lang1": null, "lang2": null, "lang3": null, "y_coord": 8.68076205, "x_coord": 15.50923782, "adm1_pcode": "TCD08", "adm1_name": "LOGONE OCCIDENTAL", "adm1_name1": null, "adm1_name2": null, "adm1_name3": null, "adm2_pcode": "TCD0802", "adm2_name": "Djode", "adm2_name1": null, "adm2_name2": null, "adm2_name3": null }, "geometry": { "type": "Point", "coordinates": [ 15.509237820000067, 8.680762049000066 ] } },
{ "type": "Feature", "properties": { "admin_level": 2, "name": "La nya", "name1": null, "name2": null, "name3": null, "adm0_pcode": "TCD", "adm0_name": "Tchad", "valid_on": "2025-02-12", "valid_to": null, "area_sqkm": 2834.8625304900002, "version": "v01", "lang": "fr", "lang1": null, "lang2": null, "lang3": null, "y_coord": 8.56244492, "x_coord": 16.61101837, "adm1_pcode": "TCD09", "adm1_name": "LOGONE ORIENTAL", "adm1_name1": null, "adm1_name2": null, "adm1_name3": null, "adm2_pcode": "TCD0904", "adm2_name": "La nya", "adm2_name1": null, "adm2_name2": null, "adm2_name3": null }, "geometry": { "type": "Point", "coordinates": [ 16.611018374000082, 8.562444916000061 ] } },
{ "type": "Feature", "properties": { "admin_level": 2, "name": "Gueni", "name1": null, "name2": null, "name3": null, "adm0_pcode": "TCD", "adm0_name": "Tchad", "valid_on": "2025-02-12", "valid_to": null, "area_sqkm": 1053.2028854, "version": "v01", "lang": "fr", "lang1": null, "lang2": null, "lang3": null, "y_coord": 8.96022417, "x_coord": 15.77029566, "adm1_pcode": "TCD08", "adm1_name": "LOGONE OCCIDENTAL", "adm1_name1": null, "adm1_name2": null, "adm1_name3": null, "adm2_pcode": "TCD0803", "adm2_name": "Gueni", "adm2_name1": null, "adm2_name2": null, "adm2_name3": null }, "geometry": { "type": "Point", "coordinates": [ 15.770295656000144, 8.960224167000035 ] } },
{ "type": "Feature", "properties": { "admin_level": 2, "name": "La pendé", "name1": null, "name2": null, "name3": null, "adm0_pcode": "TCD", "adm0_name": "Tchad", "valid_on": "2025-02-12", "valid_to": null, "area_sqkm": 2500.8731316600001, "version": "v01", "lang": "fr", "lang1": null, "lang2": null, "lang3": null, "y_coord": 8.85717268, "x_coord": 16.93902621, "adm1_pcode": "TCD09", "adm1_name": "LOGONE ORIENTAL", "adm1_name1": null, "adm1_name2": null, "adm1_name3": null, "adm2_pcode": "TCD0901", "adm2_name": "La pendé", "adm2_name1": null, "adm2_name2": null, "adm2_name3": null }, "geometry": { "type": "Point", "coordinates": [ 16.939026207000097, 8.85717267900003 ] } },
{ "type": "Feature", "properties": { "admin_level": 2, "name": "Ngourkosso", "name1": null, "name2": null, "name3": null, "adm0_pcode": "TCD", "adm0_name": "Tchad", "valid_on": "2025-02-12", "valid_to": null, "area_sqkm": 1651.0860123499999, "version": "v01", "lang": "fr", "lang1": null, "lang2": null, "lang3": null, "y_coord": 8.97118168, "x_coord": 16.32682114, "adm1_pcode": "TCD08", "adm1_name": "LOGONE OCCIDENTAL", "adm1_name1": null, "adm1_name2": null, "adm1_name3": null, "adm2_pcode": "TCD0804", "adm2_name": "Ngourkosso", "adm2_name1": null, "adm2_name2": null, "adm2_name3": null }, "geometry": { "type": "Point", "coordinates": [ 16.326821138000184, 8.971181682000122 ] } },
{ "type": "Feature", "properties": { "admin_level": 2, "name": "Tandjilé Centre", "name1": null, "name2": null, "name3": null, "adm0_pcode": "TCD", "adm0_name": "Tchad", "valid_on": "2025-02-12", "valid_to": null, "area_sqkm": 1002.00789066, "version": "v01", "lang": "fr", "lang1": null, "lang2": null, "lang3": null, "y_coord": 9.29906335, "x_coord": 16.18546027, "adm1_pcode": "TCD16", "adm1_name": "TANDJILÉ", "adm1_name1": null, "adm1_name2": null, "adm1_name3": null, "adm2_pcode": "TCD1603", "adm2_name": "Tandjilé Centre", "adm2_name1": null, "adm2_name2": null, "adm2_name3": null }, "geometry": { "type": "Point", "coordinates": [ 16.185460271000068, 9.299063347000015 ] } },
{ "type": "Feature", "properties": { "admin_level": 2, "name": "Mandoul Oriental", "name1": null, "name2": null, "name3": null, "adm0_pcode": "TCD", "adm0_name": "Tchad", "valid_on": "2025-02-12", "valid_to": null, "area_sqkm": 7009.9378171500002, "version": "v01", "lang": "fr", "lang1": null, "lang2": null, "lang3": null, "y_coord": 9.13626603, "x_coord": 17.68750155, "adm1_pcode": "TCD10", "adm1_name": "MANDOUL", "adm1_name1": null, "adm1_name2": null, "adm1_name3": null, "adm2_pcode": "TCD1001", "adm2_name": "Mandoul Oriental", "adm2_name1": null, "adm2_name2": null, "adm2_name3": null }, "geometry": { "type": "Point", "coordinates": [ 17.687501549000103, 9.136266035000062 ] } },
{ "type": "Feature", "properties": { "admin_level": 2, "name": "Mayo Dallah", "name1": null, "name2": null, "name3": null, "adm0_pcode": "TCD", "adm0_name": "Tchad", "valid_on": "2025-02-12", "valid_to": null, "area_sqkm": 8122.0814902599996, "version": "v01", "lang": "fr", "lang1": null, "lang2": null, "lang3": null, "y_coord": 9.07949868, "x_coord": 14.95844783, "adm1_pcode": "TCD12", "adm1_name": "MAYO KEBBI OUEST", "adm1_name1": null, "adm1_name2": null, "adm1_name3": null, "adm2_pcode": "TCD1201", "adm2_name": "Mayo Dallah", "adm2_name1": null, "adm2_name2": null, "adm2_name3": null }, "geometry": { "type": "Point", "coordinates": [ 14.958447827000043, 9.07949867800005 ] } },
{ "type": "Feature", "properties": { "admin_level": 2, "name": "Tandjilé Ouest", "name1": null, "name2": null, "name3": null, "adm0_pcode": "TCD", "adm0_name": "Tchad", "valid_on": "2025-02-12", "valid_to": null, "area_sqkm": 4033.08145453, "version": "v01", "lang": "fr", "lang1": null, "lang2": null, "lang3": null, "y_coord": 9.3632428, "x_coord": 15.79119756, "adm1_pcode": "TCD16", "adm1_name": "TANDJILÉ", "adm1_name1": null, "adm1_name2": null, "adm1_name3": null, "adm2_pcode": "TCD1602", "adm2_name": "Tandjilé Ouest", "adm2_name1": null, "adm2_name2": null, "adm2_name3": null }, "geometry": { "type": "Point", "coordinates": [ 15.791197558000079, 9.363242799000034 ] } },
{ "type": "Feature", "properties": { "admin_level": 2, "name": "La kabbia", "name1": null, "name2": null, "name3": null, "adm0_pcode": "TCD", "adm0_name": "Tchad", "valid_on": "2025-02-12", "valid_to": null, "area_sqkm": 3188.1883983399998, "version": "v01", "lang": "fr", "lang1": null, "lang2": null, "lang3": null, "y_coord": 9.52447231, "x_coord": 15.37797501, "adm1_pcode": "TCD11", "adm1_name": "MAYO KEBBI EST", "adm1_name1": null, "adm1_name2": null, "adm1_name3": null, "adm2_pcode": "TCD1102", "adm2_name": "La kabbia", "adm2_name1": null, "adm2_name2": null, "adm2_name3": null }, "geometry": { "type": "Point", "coordinates": [ 15.377975011999979, 9.524472313000103 ] } },
{ "type": "Feature", "properties": { "admin_level": 2, "name": "Mont Illi", "name1": null, "name2": null, "name3": null, "adm0_pcode": "TCD", "adm0_name": "Tchad", "valid_on": "2025-02-12", "valid_to": null, "area_sqkm": 2927.14847921, "version": "v01", "lang": "fr", "lang1": null, "lang2": null, "lang3": null, "y_coord": 9.7694345, "x_coord": 15.05798636, "adm1_pcode": "TCD11", "adm1_name": "MAYO KEBBI EST", "adm1_name1": null, "adm1_name2": null, "adm1_name3": null, "adm2_pcode": "TCD1104", "adm2_name": "Mont Illi", "adm2_name1": null, "adm2_name2": null, "adm2_name3": null }, "geometry": { "type": "Point", "coordinates": [ 15.057986357000175, 9.769434501000148 ] } },
{ "type": "Feature", "properties": { "admin_level": 2, "name": "Mayo Binder", "name1": null, "name2": null, "name3": null, "adm0_pcode": "TCD", "adm0_name": "Tchad", "valid_on": "2025-02-12", "valid_to": null, "area_sqkm": 1473.5419812600001, "version": "v01", "lang": "fr", "lang1": null, "lang2": null, "lang3": null, "y_coord": 9.84391673, "x_coord": 14.48271437, "adm1_pcode": "TCD12", "adm1_name": "MAYO KEBBI OUEST", "adm1_name1": null, "adm1_name2": null, "adm1_name3": null, "adm2_pcode": "TCD1203", "adm2_name": "Mayo Binder", "adm2_name1": null, "adm2_name2": null, "adm2_name3": null }, "geometry": { "type": "Point", "coordinates": [ 14.482714365000163, 9.843916734000061 ] } },
{ "type": "Feature", "properties": { "admin_level": 2, "name": "Tandjilé Est", "name1": null, "name2": null, "name3": null, "adm0_pcode": "TCD", "adm0_name": "Tchad", "valid_on": "2025-02-12", "valid_to": null, "area_sqkm": 12462.128264839999, "version": "v01", "lang": "fr", "lang1": null, "lang2": null, "lang3": null, "y_coord": 9.65701437, "x_coord": 16.78693382, "adm1_pcode": "TCD16", "adm1_name": "TANDJILÉ", "adm1_name1": null, "adm1_name2": null, "adm1_name3": null, "adm2_pcode": "TCD1601", "adm2_name": "Tandjilé Est", "adm2_name1": null, "adm2_name2": null, "adm2_name3": null }, "geometry": { "type": "Point", "coordinates": [ 16.78693381800008, 9.657014366000112 ] } },
{ "type": "Feature", "properties": { "admin_level": 2, "name": "Bahr Koh", "name1": null, "name2": null, "name3": null, "adm0_pcode": "TCD", "adm0_name": "Tchad", "valid_on": "2025-02-12", "valid_to": null, "area_sqkm": 18288.862820369999, "version": "v01", "lang": "fr", "lang1": null, "lang2": null, "lang3": null, "y_coord": 9.51466375, "x_coord": 17.9699189, "adm1_pcode": "TCD13", "adm1_name": "MOYEN CHARI", "adm1_name1": null, "adm1_name2": null, "adm1_name3": null, "adm2_pcode": "TCD1301", "adm2_name": "Bahr Koh", "adm2_name1": null, "adm2_name2": null, "adm2_name3": null }, "geometry": { "type": "Point", "coordinates": [ 17.969918902000074, 9.514663751000171 ] } },
{ "type": "Feature", "properties": { "admin_level": 2, "name": "Lac Iro", "name1": null, "name2": null, "name3": null, "adm0_pcode": "TCD", "adm0_name": "Tchad", "valid_on": "2025-02-12", "valid_to": null, "area_sqkm": 17621.20311884, "version": "v01", "lang": "fr", "lang1": null, "lang2": null, "lang3": null, "y_coord": 9.80148033, "x_coord": 19.05274001, "adm1_pcode": "TCD13", "adm1_name": "MOYEN CHARI", "adm1_name1": null, "adm1_name2": null, "adm1_name3": null, "adm2_pcode": "TCD1303", "adm2_name": "Lac Iro", "adm2_name1": null, "adm2_name2": null, "adm2_name3": null }, "geometry": { "type": "Point", "coordinates": [ 19.052740012000072, 9.801480334000132 ] } },
{ "type": "Feature", "properties": { "admin_level": 2, "name": "Mayo Boneye", "name1": null, "name2": null, "name3": null, "adm0_pcode": "TCD", "adm0_name": "Tchad", "valid_on": "2025-02-12", "valid_to": null, "area_sqkm": 8527.7500576000002, "version": "v01", "lang": "fr", "lang1": null, "lang2": null, "lang3": null, "y_coord": 10.25436629, "x_coord": 15.77956215, "adm1_pcode": "TCD11", "adm1_name": "MAYO KEBBI EST", "adm1_name1": null, "adm1_name2": null, "adm1_name3": null, "adm2_pcode": "TCD1101", "adm2_name": "Mayo Boneye", "adm2_name1": null, "adm2_name2": null, "adm2_name3": null }, "geometry": { "type": "Point", "coordinates": [ 15.779562147000092, 10.254366287000153 ] } },
{ "type": "Feature", "properties": { "admin_level": 2, "name": "Loug Chari", "name1": null, "name2": null, "name3": null, "adm0_pcode": "TCD", "adm0_name": "Tchad", "valid_on": "2025-02-12", "valid_to": null, "area_sqkm": 14324.878278730001, "version": "v01", "lang": "fr", "lang1": null, "lang2": null, "lang3": null, "y_coord": 10.45800003, "x_coord": 16.8274505, "adm1_pcode": "TCD03", "adm1_name": "CHARI BAGUIRMI", "adm1_name1": null, "adm1_name2": null, "adm1_name3": null, "adm2_pcode": "TCD0303", "adm2_name": "Loug Chari", "adm2_name1": null, "adm2_name2": null, "adm2_name3": null }, "geometry": { "type": "Point", "coordinates": [ 16.827450496000097, 10.458000027000139 ] } },
{ "type": "Feature", "properties": { "admin_level": 2, "name": "Mayo Lemyé", "name1": null, "name2": null, "name3": null, "adm0_pcode": "TCD", "adm0_name": "Tchad", "valid_on": "2025-02-12", "valid_to": null, "area_sqkm": 3498.6004932300002, "version": "v01", "lang": "fr", "lang1": null, "lang2": null, "lang3": null, "y_coord": 10.8585837, "x_coord": 15.39660702, "adm1_pcode": "TCD11", "adm1_name": "MAYO KEBBI EST", "adm1_name1": null, "adm1_name2": null, "adm1_name3": null, "adm2_pcode": "TCD1103", "adm2_name": "Mayo Lemyé", "adm2_name1": null, "adm2_name2": null, "adm2_name3": null }, "geometry": { "type": "Point", "coordinates": [ 15.396607022000069, 10.858583701000043 ] } },
{ "type": "Feature", "properties": { "admin_level": 2, "name": "Bahar Signaka", "name1": null, "name2": null, "name3": null, "adm0_pcode": "TCD", "adm0_name": "Tchad", "valid_on": "2025-02-12", "valid_to": null, "area_sqkm": 32307.367681420001, "version": "v01", "lang": "fr", "lang1": null, "lang2": null, "lang3": null, "y_coord": 10.756, "x_coord": 18.54039522, "adm1_pcode": "TCD04", "adm1_name": "GUÉRA", "adm1_name1": null, "adm1_name2": null, "adm1_name3": null, "adm2_pcode": "TCD0403", "adm2_name": "Bahar Signaka", "adm2_name1": null, "adm2_name2": null, "adm2_name3": null }, "geometry": { "type": "Point", "coordinates": [ 18.540395224000122, 10.756 ] } },
{ "type": "Feature", "properties": { "admin_level": 2, "name": "Haraze Mangueigne", "name1": null, "name2": null, "name3": null, "adm0_pcode": "TCD", "adm0_name": "Tchad", "valid_on": "2025-02-12", "valid_to": null, "area_sqkm": 29742.065017649998, "version": "v01", "lang": "fr", "lang1": null, "lang2": null, "lang3": null, "y_coord": 10.40815407, "x_coord": 21.29387387, "adm1_pcode": "TCD15", "adm1_name": "SALAMAT", "adm1_name1": null, "adm1_name2": null, "adm1_name3": null, "adm2_pcode": "TCD1503", "adm2_name": "Haraze Mangueigne", "adm2_name1": null, "adm2_name2": null, "adm2_name3": null }, "geometry": { "type": "Point", "coordinates": [ 21.293873872000177, 10.408154071000183 ] } },
{ "type": "Feature", "properties": { "admin_level": 2, "name": "Bahr Azoum", "name1": null, "name2": null, "name3": null, "adm0_pcode": "TCD", "adm0_name": "Tchad", "valid_on": "2025-02-12", "valid_to": null, "area_sqkm": 26708.883393240001, "version": "v01", "lang": "fr", "lang1": null, "lang2": null, "lang3": null, "y_coord": 10.9735425, "x_coord": 20.37291067, "adm1_pcode": "TCD15", "adm1_name": "SALAMAT", "adm1_name1": null, "adm1_name2": null, "adm1_name3": null, "adm2_pcode": "TCD1501", "adm2_name": "Bahr Azoum", "adm2_name1": null, "adm2_name2": null, "adm2_name3": null }, "geometry": { "type": "Point", "coordinates": [ 20.372910672000103, 10.973542501000111 ] } },
{ "type": "Feature", "properties": { "admin_level": 2, "name": "Aboudeia", "name1": null, "name2": null, "name3": null, "adm0_pcode": "TCD", "adm0_name": "Tchad", "valid_on": "2025-02-12", "valid_to": null, "area_sqkm": 11403.06238732, "version": "v01", "lang": "fr", "lang1": null, "lang2": null, "lang3": null, "y_coord": 11.54762425, "x_coord": 19.46102196, "adm1_pcode": "TCD15", "adm1_name": "SALAMAT", "adm1_name1": null, "adm1_name2": null, "adm1_name3": null, "adm2_pcode": "TCD1502", "adm2_name": "Aboudeia", "adm2_name1": null, "adm2_name2": null, "adm2_name3": null }, "geometry": { "type": "Point", "coordinates": [ 19.461021957000014, 11.547624250000126 ] } },
{ "type": "Feature", "properties": { "admin_level": 2, "name": "N'Djamena", "name1": null, "name2": null, "name3": null, "adm0_pcode": "TCD", "adm0_name": "Tchad", "valid_on": "2025-02-12", "valid_to": null, "area_sqkm": 435.57828473000001, "version": "v01", "lang": "fr", "lang1": null, "lang2": null, "lang3": null, "y_coord": 12.12498268, "x_coord": 15.048157, "adm1_pcode": "TCD18", "adm1_name": "N'DJAMENA", "adm1_name1": null, "adm1_name2": null, "adm1_name3": null, "adm2_pcode": "TCD1801", "adm2_name": "N'Djamena", "adm2_name1": null, "adm2_name2": null, "adm2_name3": null }, "geometry": { "type": "Point", "coordinates": [ 15.048157004000188, 12.124982679000027 ] } },
{ "type": "Feature", "properties": { "admin_level": 2, "name": "Baguirmi", "name1": null, "name2": null, "name3": null, "adm0_pcode": "TCD", "adm0_name": "Tchad", "valid_on": "2025-02-12", "valid_to": null, "area_sqkm": 27156.42401065, "version": "v01", "lang": "fr", "lang1": null, "lang2": null, "lang3": null, "y_coord": 11.43550454, "x_coord": 16.35217818, "adm1_pcode": "TCD03", "adm1_name": "CHARI BAGUIRMI", "adm1_name1": null, "adm1_name2": null, "adm1_name3": null, "adm2_pcode": "TCD0301", "adm2_name": "Baguirmi", "adm2_name1": null, "adm2_name2": null, "adm2_name3": null }, "geometry": { "type": "Point", "coordinates": [ 16.352178179000077, 11.435504543000093 ] } },
{ "type": "Feature", "properties": { "admin_level": 2, "name": "Chari", "name1": null, "name2": null, "name3": null, "adm0_pcode": "TCD", "adm0_name": "Tchad", "valid_on": "2025-02-12", "valid_to": null, "area_sqkm": 4362.3782998400002, "version": "v01", "lang": "fr", "lang1": null, "lang2": null, "lang3": null, "y_coord": 11.729, "x_coord": 15.23029975, "adm1_pcode": "TCD03", "adm1_name": "CHARI BAGUIRMI", "adm1_name1": null, "adm1_name2": null, "adm1_name3": null, "adm2_pcode": "TCD0302", "adm2_name": "Chari", "adm2_name1": null, "adm2_name2": null, "adm2_name3": null }, "geometry": { "type": "Point", "coordinates": [ 15.230299746000128, 11.728999999000109 ] } },
{ "type": "Feature", "properties": { "admin_level": 2, "name": "Abtouyour", "name1": null, "name2": null, "name3": null, "adm0_pcode": "TCD", "adm0_name": "Tchad", "valid_on": "2025-02-12", "valid_to": null, "area_sqkm": 9598.9259011699996, "version": "v01", "lang": "fr", "lang1": null, "lang2": null, "lang3": null, "y_coord": 12.0055, "x_coord": 18.09847217, "adm1_pcode": "TCD04", "adm1_name": "GUÉRA", "adm1_name1": null, "adm1_name2": null, "adm1_name3": null, "adm2_pcode": "TCD0402", "adm2_name": "Abtouyour", "adm2_name1": null, "adm2_name2": null, "adm2_name3": null }, "geometry": { "type": "Point", "coordinates": [ 18.098472172000129, 12.005500001000144 ] } },
{ "type": "Feature", "properties": { "admin_level": 2, "name": "Guéra", "name1": null, "name2": null, "name3": null, "adm0_pcode": "TCD", "adm0_name": "Tchad", "valid_on": "2025-02-12", "valid_to": null, "area_sqkm": 8395.93922011, "version": "v01", "lang": "fr", "lang1": null, "lang2": null, "lang3": null, "y_coord": 11.997, "x_coord": 18.8755914, "adm1_pcode": "TCD04", "adm1_name": "GUÉRA", "adm1_name1": null, "adm1_name2": null, "adm1_name3": null, "adm2_pcode": "TCD0401", "adm2_name": "Guéra", "adm2_name1": null, "adm2_name2": null, "adm2_name3": null }, "geometry": { "type": "Point", "coordinates": [ 18.875591399000029, 11.997 ] } },
{ "type": "Feature", "properties": { "admin_level": 2, "name": "Kimiti", "name1": null, "name2": null, "name3": null, "adm0_pcode": "TCD", "adm0_name": "Tchad", "valid_on": "2025-02-12", "valid_to": null, "area_sqkm": 21005.74446632, "version": "v01", "lang": "fr", "lang1": null, "lang2": null, "lang3": null, "y_coord": 11.88003929, "x_coord": 21.87515094, "adm1_pcode": "TCD21", "adm1_name": "SILA", "adm1_name1": null, "adm1_name2": null, "adm1_name3": null, "adm2_pcode": "TCD2101", "adm2_name": "Kimiti", "adm2_name1": null, "adm2_name2": null, "adm2_name3": null }, "geometry": { "type": "Point", "coordinates": [ 21.875150940000026, 11.880039294000085 ] } },
{ "type": "Feature", "properties": { "admin_level": 2, "name": "Haraze Al Biar", "name1": null, "name2": null, "name3": null, "adm0_pcode": "TCD", "adm0_name": "Tchad", "valid_on": "2025-02-12", "valid_to": null, "area_sqkm": 6059.5188143400001, "version": "v01", "lang": "fr", "lang1": null, "lang2": null, "lang3": null, "y_coord": 12.5964945, "x_coord": 15.04510755, "adm1_pcode": "TCD05", "adm1_name": "HADJER LAMIS", "adm1_name1": null, "adm1_name2": null, "adm1_name3": null, "adm2_pcode": "TCD0503", "adm2_name": "Haraze Al Biar", "adm2_name1": null, "adm2_name2": null, "adm2_name3": null }, "geometry": { "type": "Point", "coordinates": [ 15.045107547000043, 12.596494500000119 ] } },
{ "type": "Feature", "properties": { "admin_level": 2, "name": "Mangalmé", "name1": null, "name2": null, "name3": null, "adm0_pcode": "TCD", "adm0_name": "Tchad", "valid_on": "2025-02-12", "valid_to": null, "area_sqkm": 10732.253645229999, "version": "v01", "lang": "fr", "lang1": null, "lang2": null, "lang3": null, "y_coord": 12.2975, "x_coord": 19.54730036, "adm1_pcode": "TCD04", "adm1_name": "GUÉRA", "adm1_name1": null, "adm1_name2": null, "adm1_name3": null, "adm2_pcode": "TCD0404", "adm2_name": "Mangalmé", "adm2_name1": null, "adm2_name2": null, "adm2_name3": null }, "geometry": { "type": "Point", "coordinates": [ 19.547300360000179, 12.297500000000184 ] } },
{ "type": "Feature", "properties": { "admin_level": 2, "name": "Djourf Al Ahmar", "name1": null, "name2": null, "name3": null, "adm0_pcode": "TCD", "adm0_name": "Tchad", "valid_on": "2025-02-12", "valid_to": null, "area_sqkm": 14721.166125850001, "version": "v01", "lang": "fr", "lang1": null, "lang2": null, "lang3": null, "y_coord": 12.32410135, "x_coord": 20.5967427, "adm1_pcode": "TCD14", "adm1_name": "OUADDAÏ", "adm1_name1": null, "adm1_name2": null, "adm1_name3": null, "adm2_pcode": "TCD1402", "adm2_name": "Djourf Al Ahmar", "adm2_name1": null, "adm2_name2": null, "adm2_name3": null }, "geometry": { "type": "Point", "coordinates": [ 20.596742704000064, 12.324101351000024 ] } },
{ "type": "Feature", "properties": { "admin_level": 2, "name": "Dababa", "name1": null, "name2": null, "name3": null, "adm0_pcode": "TCD", "adm0_name": "Tchad", "valid_on": "2025-02-12", "valid_to": null, "area_sqkm": 16209.431747230001, "version": "v01", "lang": "fr", "lang1": null, "lang2": null, "lang3": null, "y_coord": 12.31385886, "x_coord": 16.87720881, "adm1_pcode": "TCD05", "adm1_name": "HADJER LAMIS", "adm1_name1": null, "adm1_name2": null, "adm1_name3": null, "adm2_pcode": "TCD0502", "adm2_name": "Dababa", "adm2_name1": null, "adm2_name2": null, "adm2_name3": null }, "geometry": { "type": "Point", "coordinates": [ 16.877208811000173, 12.313858860000153 ] } },
{ "type": "Feature", "properties": { "admin_level": 2, "name": "Abdi", "name1": null, "name2": null, "name3": null, "adm0_pcode": "TCD", "adm0_name": "Tchad", "valid_on": "2025-02-12", "valid_to": null, "area_sqkm": 3829.2764228199999, "version": "v01", "lang": "fr", "lang1": null, "lang2": null, "lang3": null, "y_coord": 12.90934665, "x_coord": 21.21261648, "adm1_pcode": "TCD21", "adm1_name": "SILA", "adm1_name1": null, "adm1_name2": null, "adm1_name3": null, "adm2_pcode": "TCD2102", "adm2_name": "Abdi", "adm2_name1": null, "adm2_name2": null, "adm2_name3": null }, "geometry": { "type": "Point", "coordinates": [ 21.212616478000086, 12.909346651000135 ] } },
{ "type": "Feature", "properties": { "admin_level": 2, "name": "Dagana", "name1": null, "name2": null, "name3": null, "adm0_pcode": "TCD", "adm0_name": "Tchad", "valid_on": "2025-02-12", "valid_to": null, "area_sqkm": 8410.4640995699992, "version": "v01", "lang": "fr", "lang1": null, "lang2": null, "lang3": null, "y_coord": 12.97599602, "x_coord": 15.47065602, "adm1_pcode": "TCD05", "adm1_name": "HADJER LAMIS", "adm1_name1": null, "adm1_name2": null, "adm1_name3": null, "adm2_pcode": "TCD0501", "adm2_name": "Dagana", "adm2_name1": null, "adm2_name2": null, "adm2_name3": null }, "geometry": { "type": "Point", "coordinates": [ 15.470656021000025, 12.975996017 ] } },
{ "type": "Feature", "properties": { "admin_level": 2, "name": "Fitri", "name1": null, "name2": null, "name3": null, "adm0_pcode": "TCD", "adm0_name": "Tchad", "valid_on": "2025-02-12", "valid_to": null, "area_sqkm": 11694.491070489999, "version": "v01", "lang": "fr", "lang1": null, "lang2": null, "lang3": null, "y_coord": 12.79947926, "x_coord": 17.51147465, "adm1_pcode": "TCD01", "adm1_name": "BATHA", "adm1_name1": null, "adm1_name2": null, "adm1_name3": null, "adm2_pcode": "TCD0103", "adm2_name": "Fitri", "adm2_name1": null, "adm2_name2": null, "adm2_name3": null }, "geometry": { "type": "Point", "coordinates": [ 17.511474652, 12.799479256999973 ] } },
{ "type": "Feature", "properties": { "admin_level": 2, "name": "Barh El Gazel Ouest", "name1": null, "name2": null, "name3": null, "adm0_pcode": "TCD", "adm0_name": "Tchad", "valid_on": "2025-02-12", "valid_to": null, "area_sqkm": 2864.0651005899999, "version": "v01", "lang": "fr", "lang1": null, "lang2": null, "lang3": null, "y_coord": 13.27869931, "x_coord": 16.24777579, "adm1_pcode": "TCD19", "adm1_name": "BARH EL GAZEL", "adm1_name1": null, "adm1_name2": null, "adm1_name3": null, "adm2_pcode": "TCD1903", "adm2_name": "Barh El Gazel Ouest", "adm2_name1": null, "adm2_name2": null, "adm2_name3": null }, "geometry": { "type": "Point", "coordinates": [ 16.247775791000038, 13.278699314000164 ] } },
{ "type": "Feature", "properties": { "admin_level": 2, "name": "Wayi", "name1": null, "name2": null, "name3": null, "adm0_pcode": "TCD", "adm0_name": "Tchad", "valid_on": "2025-02-12", "valid_to": null, "area_sqkm": 3029.17830387, "version": "v01", "lang": "fr", "lang1": null, "lang2": null, "lang3": null, "y_coord": 13.41780286, "x_coord": 15.24829439, "adm1_pcode": "TCD07", "adm1_name": "LAC", "adm1_name1": null, "adm1_name2": null, "adm1_name3": null, "adm2_pcode": "TCD0702", "adm2_name": "Wayi", "adm2_name1": null, "adm2_name2": null, "adm2_name3": null }, "geometry": { "type": "Point", "coordinates": [ 15.248294390000069, 13.417802862000087 ] } },
{ "type": "Feature", "properties": { "admin_level": 2, "name": "Wadi Bissam", "name1": null, "name2": null, "name3": null, "adm0_pcode": "TCD", "adm0_name": "Tchad", "valid_on": "2025-02-12", "valid_to": null, "area_sqkm": 2891.2107637, "version": "v01", "lang": "fr", "lang1": null, "lang2": null, "lang3": null, "y_coord": 13.5225, "x_coord": 15.69131395, "adm1_pcode": "TCD06", "adm1_name": "KANEM", "adm1_name1": null, "adm1_name2": null, "adm1_name3": null, "adm2_pcode": "TCD0603", "adm2_name": "Wadi Bissam", "adm2_name1": null, "adm2_name2": null, "adm2_name3": null }, "geometry": { "type": "Point", "coordinates": [ 15.691313954, 13.522500001000083 ] } },
{ "type": "Feature", "properties": { "admin_level": 2, "name": "Assoungha", "name1": null, "name2": null, "name3": null, "adm0_pcode": "TCD", "adm0_name": "Tchad", "valid_on": "2025-02-12", "valid_to": null, "area_sqkm": 8104.1175494500003, "version": "v01", "lang": "fr", "lang1": null, "lang2": null, "lang3": null, "y_coord": 13.45396463, "x_coord": 21.954275, "adm1_pcode": "TCD14", "adm1_name": "OUADDAÏ", "adm1_name1": null, "adm1_name2": null, "adm1_name3": null, "adm2_pcode": "TCD1403", "adm2_name": "Assoungha", "adm2_name1": null, "adm2_name2": null, "adm2_name3": null }, "geometry": { "type": "Point", "coordinates": [ 21.95427500400001, 13.453964635000091 ] } },
{ "type": "Feature", "properties": { "admin_level": 2, "name": "Barh El Gazel Sud", "name1": null, "name2": null, "name3": null, "adm0_pcode": "TCD", "adm0_name": "Tchad", "valid_on": "2025-02-12", "valid_to": null, "area_sqkm": 11939.998674709999, "version": "v01", "lang": "fr", "lang1": null, "lang2": null, "lang3": null, "y_coord": 13.69536426, "x_coord": 16.5571184, "adm1_pcode": "TCD19", "adm1_name": "BARH EL GAZEL", "adm1_name1": null, "adm1_name2": null, "adm1_name3": null, "adm2_pcode": "TCD1901", "adm2_name": "Barh El Gazel Sud", "adm2_name1": null, "adm2_name2": null, "adm2_name3": null }, "geometry": { "type": "Point", "coordinates": [ 16.557118404999983, 13.695364258000154 ] } },
{ "type": "Feature", "properties": { "admin_level": 2, "name": "Ouara", "name1": null, "name2": null, "name3": null, "adm0_pcode": "TCD", "adm0_name": "Tchad", "valid_on": "2025-02-12", "valid_to": null, "area_sqkm": 17837.361314680002, "version": "v01", "lang": "fr", "lang1": null, "lang2": null, "lang3": null, "y_coord": 13.70903992, "x_coord": 20.89662737, "adm1_pcode": "TCD14", "adm1_name": "OUADDAÏ", "adm1_name1": null, "adm1_name2": null, "adm1_name3": null, "adm2_pcode": "TCD1401", "adm2_name": "Ouara", "adm2_name1": null, "adm2_name2": null, "adm2_name3": null }, "geometry": { "type": "Point", "coordinates": [ 20.896627370000147, 13.709039918000144 ] } },
{ "type": "Feature", "properties": { "admin_level": 2, "name": "Kanem", "name1": null, "name2": null, "name3": null, "adm0_pcode": "TCD", "adm0_name": "Tchad", "valid_on": "2025-02-12", "valid_to": null, "area_sqkm": 9699.4115657700004, "version": "v01", "lang": "fr", "lang1": null, "lang2": null, "lang3": null, "y_coord": 14.099, "x_coord": 15.18889104, "adm1_pcode": "TCD06", "adm1_name": "KANEM", "adm1_name1": null, "adm1_name2": null, "adm1_name3": null, "adm2_pcode": "TCD0601", "adm2_name": "Kanem", "adm2_name1": null, "adm2_name2": null, "adm2_name3": null }, "geometry": { "type": "Point", "coordinates": [ 15.188891045000105, 14.099000001000093 ] } },
{ "type": "Feature", "properties": { "admin_level": 2, "name": "Dar Tama", "name1": null, "name2": null, "name3": null, "adm0_pcode": "TCD", "adm0_name": "Tchad", "valid_on": "2025-02-12", "valid_to": null, "area_sqkm": 9503.2055453299999, "version": "v01", "lang": "fr", "lang1": null, "lang2": null, "lang3": null, "y_coord": 14.45073321, "x_coord": 21.96072607, "adm1_pcode": "TCD17", "adm1_name": "WADI FIRA", "adm1_name1": null, "adm1_name2": null, "adm1_name3": null, "adm2_pcode": "TCD1702", "adm2_name": "Dar Tama", "adm2_name1": null, "adm2_name2": null, "adm2_name3": null }, "geometry": { "type": "Point", "coordinates": [ 21.960726066000177, 14.450733213000092 ] } },
{ "type": "Feature", "properties": { "admin_level": 2, "name": "Kobé", "name1": null, "name2": null, "name3": null, "adm0_pcode": "TCD", "adm0_name": "Tchad", "valid_on": "2025-02-12", "valid_to": null, "area_sqkm": 7274.4099558600001, "version": "v01", "lang": "fr", "lang1": null, "lang2": null, "lang3": null, "y_coord": 15.07486829, "x_coord": 22.42700201, "adm1_pcode": "TCD17", "adm1_name": "WADI FIRA", "adm1_name1": null, "adm1_name2": null, "adm1_name3": null, "adm2_pcode": "TCD1703", "adm2_name": "Kobé", "adm2_name1": null, "adm2_name2": null, "adm2_name3": null }, "geometry": { "type": "Point", "coordinates": [ 22.427002010000024, 15.07486828600014 ] } },
{ "type": "Feature", "properties": { "admin_level": 2, "name": "Batha Est", "name1": null, "name2": null, "name3": null, "adm0_pcode": "TCD", "adm0_name": "Tchad", "valid_on": "2025-02-12", "valid_to": null, "area_sqkm": 30547.286068199999, "version": "v01", "lang": "fr", "lang1": null, "lang2": null, "lang3": null, "y_coord": 14.308, "x_coord": 19.56846022, "adm1_pcode": "TCD01", "adm1_name": "BATHA", "adm1_name1": null, "adm1_name2": null, "adm1_name3": null, "adm2_pcode": "TCD0102", "adm2_name": "Batha Est", "adm2_name1": null, "adm2_name2": null, "adm2_name3": null }, "geometry": { "type": "Point", "coordinates": [ 19.568460223000102, 14.308000001000039 ] } },
{ "type": "Feature", "properties": { "admin_level": 2, "name": "Biltine", "name1": null, "name2": null, "name3": null, "adm0_pcode": "TCD", "adm0_name": "Tchad", "valid_on": "2025-02-12", "valid_to": null, "area_sqkm": 23544.91925658, "version": "v01", "lang": "fr", "lang1": null, "lang2": null, "lang3": null, "y_coord": 14.945235, "x_coord": 20.52996325, "adm1_pcode": "TCD17", "adm1_name": "WADI FIRA", "adm1_name1": null, "adm1_name2": null, "adm1_name3": null, "adm2_pcode": "TCD1701", "adm2_name": "Biltine", "adm2_name1": null, "adm2_name2": null, "adm2_name3": null }, "geometry": { "type": "Point", "coordinates": [ 20.529963253000176, 14.945235 ] } },
{ "type": "Feature", "properties": { "admin_level": 2, "name": "Megri", "name1": null, "name2": null, "name3": null, "adm0_pcode": "TCD", "adm0_name": "Tchad", "valid_on": "2025-02-12", "valid_to": null, "area_sqkm": 11324.00621268, "version": "v01", "lang": "fr", "lang1": null, "lang2": null, "lang3": null, "y_coord": 15.35964597, "x_coord": 21.86713098, "adm1_pcode": "TCD17", "adm1_name": "WADI FIRA", "adm1_name1": null, "adm1_name2": null, "adm1_name3": null, "adm2_pcode": "TCD1704", "adm2_name": "Megri", "adm2_name1": null, "adm2_name2": null, "adm2_name3": null }, "geometry": { "type": "Point", "coordinates": [ 21.867130976000112, 15.359645974000102 ] } },
{ "type": "Feature", "properties": { "admin_level": 2, "name": "Barh El Gazel Nord", "name1": null, "name2": null, "name3": null, "adm0_pcode": "TCD", "adm0_name": "Tchad", "valid_on": "2025-02-12", "valid_to": null, "area_sqkm": 35603.774098399997, "version": "v01", "lang": "fr", "lang1": null, "lang2": null, "lang3": null, "y_coord": 14.77346972, "x_coord": 17.01533708, "adm1_pcode": "TCD19", "adm1_name": "BARH EL GAZEL", "adm1_name1": null, "adm1_name2": null, "adm1_name3": null, "adm2_pcode": "TCD1902", "adm2_name": "Barh El Gazel Nord", "adm2_name1": null, "adm2_name2": null, "adm2_name3": null }, "geometry": { "type": "Point", "coordinates": [ 17.01533707800013, 14.773469716000079 ] } },
{ "type": "Feature", "properties": { "admin_level": 2, "name": "Batha Ouest", "name1": null, "name2": null, "name3": null, "adm0_pcode": "TCD", "adm0_name": "Tchad", "valid_on": "2025-02-12", "valid_to": null, "area_sqkm": 48833.479116870003, "version": "v01", "lang": "fr", "lang1": null, "lang2": null, "lang3": null, "y_coord": 14.308, "x_coord": 18.39558467, "adm1_pcode": "TCD01", "adm1_name": "BATHA", "adm1_name1": null, "adm1_name2": null, "adm1_name3": null, "adm2_pcode": "TCD0101", "adm2_name": "Batha Ouest", "adm2_name1": null, "adm2_name2": null, "adm2_name3": null }, "geometry": { "type": "Point", "coordinates": [ 18.395584666000161, 14.308000001000039 ] } },
{ "type": "Feature", "properties": { "admin_level": 2, "name": "Wadi Hawar", "name1": null, "name2": null, "name3": null, "adm0_pcode": "TCD", "adm0_name": "Tchad", "valid_on": "2025-02-12", "valid_to": null, "area_sqkm": 2937.7398781299999, "version": "v01", "lang": "fr", "lang1": null, "lang2": null, "lang3": null, "y_coord": 15.805304, "x_coord": 22.71323756, "adm1_pcode": "TCD20", "adm1_name": "ENNEDI EST", "adm1_name1": null, "adm1_name2": null, "adm1_name3": null, "adm2_pcode": "TCD2002", "adm2_name": "Wadi Hawar", "adm2_name1": null, "adm2_name2": null, "adm2_name3": null }, "geometry": { "type": "Point", "coordinates": [ 22.713237561000085, 15.805303999000103 ] } },
{ "type": "Feature", "properties": { "admin_level": 2, "name": "Mourtcha", "name1": null, "name2": null, "name3": null, "adm0_pcode": "TCD", "adm0_name": "Tchad", "valid_on": "2025-02-12", "valid_to": null, "area_sqkm": 10408.835503689999, "version": "v01", "lang": "fr", "lang1": null, "lang2": null, "lang3": null, "y_coord": 16.3450958, "x_coord": 20.90903126, "adm1_pcode": "TCD23", "adm1_name": "ENNEDI OUEST", "adm1_name1": null, "adm1_name2": null, "adm1_name3": null, "adm2_pcode": "TCD2302", "adm2_name": "Mourtcha", "adm2_name1": null, "adm2_name2": null, "adm2_name3": null }, "geometry": { "type": "Point", "coordinates": [ 20.909031258000084, 16.34509579600001 ] } },
{ "type": "Feature", "properties": { "admin_level": 2, "name": "Borkou", "name1": null, "name2": null, "name3": null, "adm0_pcode": "TCD", "adm0_name": "Tchad", "valid_on": "2025-02-12", "valid_to": null, "area_sqkm": 72468.454475680002, "version": "v01", "lang": "fr", "lang1": null, "lang2": null, "lang3": null, "y_coord": 16.48665782, "x_coord": 18.97264577, "adm1_pcode": "TCD02", "adm1_name": "BORKOU", "adm1_name1": null, "adm1_name2": null, "adm1_name3": null, "adm2_pcode": "TCD0201", "adm2_name": "Borkou", "adm2_name1": null, "adm2_name2": null, "adm2_name3": null }, "geometry": { "type": "Point", "coordinates": [ 18.972645770999975, 16.486657816000161 ] } },
{ "type": "Feature", "properties": { "admin_level": 2, "name": "Borkou Yala", "name1": null, "name2": null, "name3": null, "adm0_pcode": "TCD", "adm0_name": "Tchad", "valid_on": "2025-02-12", "valid_to": null, "area_sqkm": 76065.169803509998, "version": "v01", "lang": "fr", "lang1": null, "lang2": null, "lang3": null, "y_coord": 17.32441009, "x_coord": 17.09830833, "adm1_pcode": "TCD02", "adm1_name": "BORKOU", "adm1_name1": null, "adm1_name2": null, "adm1_name3": null, "adm2_pcode": "TCD0202", "adm2_name": "Borkou Yala", "adm2_name1": null, "adm2_name2": null, "adm2_name3": null }, "geometry": { "type": "Point", "coordinates": [ 17.098308327000041, 17.324410092000164 ] } },
{ "type": "Feature", "properties": { "admin_level": 2, "name": "Fada", "name1": null, "name2": null, "name3": null, "adm0_pcode": "TCD", "adm0_name": "Tchad", "valid_on": "2025-02-12", "valid_to": null, "area_sqkm": 113838.48569211, "version": "v01", "lang": "fr", "lang1": null, "lang2": null, "lang3": null, "y_coord": 18.25614896, "x_coord": 20.96239138, "adm1_pcode": "TCD23", "adm1_name": "ENNEDI OUEST", "adm1_name1": null, "adm1_name2": null, "adm1_name3": null, "adm2_pcode": "TCD2301", "adm2_name": "Fada", "adm2_name1": null, "adm2_name2": null, "adm2_name3": null }, "geometry": { "type": "Point", "coordinates": [ 20.962391381000032, 18.256148961 ] } },
{ "type": "Feature", "properties": { "admin_level": 2, "name": "La Nya pendé", "name1": null, "name2": null, "name3": null, "adm0_pcode": "TCD", "adm0_name": "Tchad", "valid_on": "2025-02-12", "valid_to": null, "area_sqkm": 4612.8860354799999, "version": "v01", "lang": "fr", "lang1": null, "lang2": null, "lang3": null, "y_coord": 8.0070185, "x_coord": 16.48196026, "adm1_pcode": "TCD09", "adm1_name": "LOGONE ORIENTAL", "adm1_name1": null, "adm1_name2": null, "adm1_name3": null, "adm2_pcode": "TCD0905", "adm2_name": "La Nya pendé", "adm2_name1": null, "adm2_name2": null, "adm2_name3": null }, "geometry": { "type": "Point", "coordinates": [ 16.481960259000061, 8.007018500000186 ] } },
{ "type": "Feature", "properties": { "admin_level": 2, "name": "Monts de lam", "name1": null, "name2": null, "name3": null, "adm0_pcode": "TCD", "adm0_name": "Tchad", "valid_on": "2025-02-12", "valid_to": null, "area_sqkm": 10143.435360060001, "version": "v01", "lang": "fr", "lang1": null, "lang2": null, "lang3": null, "y_coord": 8.06909681, "x_coord": 15.84753137, "adm1_pcode": "TCD09", "adm1_name": "LOGONE ORIENTAL", "adm1_name1": null, "adm1_name2": null, "adm1_name3": null, "adm2_pcode": "TCD0906", "adm2_name": "Monts de lam", "adm2_name1": null, "adm2_name2": null, "adm2_name3": null }, "geometry": { "type": "Point", "coordinates": [ 15.847531365000123, 8.069096809000143 ] } },
{ "type": "Feature", "properties": { "admin_level": 2, "name": "Barh Sara", "name1": null, "name2": null, "name3": null, "adm0_pcode": "TCD", "adm0_name": "Tchad", "valid_on": "2025-02-12", "valid_to": null, "area_sqkm": 8485.0105794200008, "version": "v01", "lang": "fr", "lang1": null, "lang2": null, "lang3": null, "y_coord": 8.37107005, "x_coord": 17.75284091, "adm1_pcode": "TCD10", "adm1_name": "MANDOUL", "adm1_name1": null, "adm1_name2": null, "adm1_name3": null, "adm2_pcode": "TCD1002", "adm2_name": "Barh Sara", "adm2_name1": null, "adm2_name2": null, "adm2_name3": null }, "geometry": { "type": "Point", "coordinates": [ 17.752840911000135, 8.371070052000107 ] } },
{ "type": "Feature", "properties": { "admin_level": 2, "name": "Lac Léré", "name1": null, "name2": null, "name3": null, "adm0_pcode": "TCD", "adm0_name": "Tchad", "valid_on": "2025-02-12", "valid_to": null, "area_sqkm": 2925.44666125, "version": "v01", "lang": "fr", "lang1": null, "lang2": null, "lang3": null, "y_coord": 9.61856062, "x_coord": 14.38275937, "adm1_pcode": "TCD12", "adm1_name": "MAYO KEBBI OUEST", "adm1_name1": null, "adm1_name2": null, "adm1_name3": null, "adm2_pcode": "TCD1202", "adm2_name": "Lac Léré", "adm2_name1": null, "adm2_name2": null, "adm2_name3": null }, "geometry": { "type": "Point", "coordinates": [ 14.382759372000123, 9.618560616000025 ] } },
{ "type": "Feature", "properties": { "admin_level": 2, "name": "Mamdi", "name1": null, "name2": null, "name3": null, "adm0_pcode": "TCD", "adm0_name": "Tchad", "valid_on": "2025-02-12", "valid_to": null, "area_sqkm": 4364.2506476199997, "version": "v01", "lang": "fr", "lang1": null, "lang2": null, "lang3": null, "y_coord": 13.28873362, "x_coord": 14.52756877, "adm1_pcode": "TCD07", "adm1_name": "LAC", "adm1_name1": null, "adm1_name2": null, "adm1_name3": null, "adm2_pcode": "TCD0701", "adm2_name": "Mamdi", "adm2_name1": null, "adm2_name2": null, "adm2_name3": null }, "geometry": { "type": "Point", "coordinates": [ 14.527568772000166, 13.288733623000041 ] } },
{ "type": "Feature", "properties": { "admin_level": 2, "name": "Kaya", "name1": null, "name2": null, "name3": null, "adm0_pcode": "TCD", "adm0_name": "Tchad", "valid_on": "2025-02-12", "valid_to": null, "area_sqkm": 5148.5320876899996, "version": "v01", "lang": "fr", "lang1": null, "lang2": null, "lang3": null, "y_coord": 13.48495755, "x_coord": 14.30593394, "adm1_pcode": "TCD07", "adm1_name": "LAC", "adm1_name1": null, "adm1_name2": null, "adm1_name3": null, "adm2_pcode": "TCD0703", "adm2_name": "Kaya", "adm2_name1": null, "adm2_name2": null, "adm2_name3": null }, "geometry": { "type": "Point", "coordinates": [ 14.305933938000067, 13.484957553000129 ] } },
{ "type": "Feature", "properties": { "admin_level": 2, "name": "Fouli", "name1": null, "name2": null, "name3": null, "adm0_pcode": "TCD", "adm0_name": "Tchad", "valid_on": "2025-02-12", "valid_to": null, "area_sqkm": 7237.4460295099998, "version": "v01", "lang": "fr", "lang1": null, "lang2": null, "lang3": null, "y_coord": 14.02482191, "x_coord": 14.03958266, "adm1_pcode": "TCD07", "adm1_name": "LAC", "adm1_name1": null, "adm1_name2": null, "adm1_name3": null, "adm2_pcode": "TCD0704", "adm2_name": "Fouli", "adm2_name1": null, "adm2_name2": null, "adm2_name3": null }, "geometry": { "type": "Point", "coordinates": [ 14.039582664000079, 14.024821910000185 ] } },
{ "type": "Feature", "properties": { "admin_level": 2, "name": "Nord Kanem", "name1": null, "name2": null, "name3": null, "adm0_pcode": "TCD", "adm0_name": "Tchad", "valid_on": "2025-02-12", "valid_to": null, "area_sqkm": 58744.27887206, "version": "v01", "lang": "fr", "lang1": null, "lang2": null, "lang3": null, "y_coord": 15.29376105, "x_coord": 15.31393589, "adm1_pcode": "TCD06", "adm1_name": "KANEM", "adm1_name1": null, "adm1_name2": null, "adm1_name3": null, "adm2_pcode": "TCD0602", "adm2_name": "Nord Kanem", "adm2_name1": null, "adm2_name2": null, "adm2_name3": null }, "geometry": { "type": "Point", "coordinates": [ 15.313935885000149, 15.293761046000043 ] } },
{ "type": "Feature", "properties": { "admin_level": 2, "name": "Amdjarass", "name1": null, "name2": null, "name3": null, "adm0_pcode": "TCD", "adm0_name": "Tchad", "valid_on": "2025-02-12", "valid_to": null, "area_sqkm": 80636.321576200004, "version": "v01", "lang": "fr", "lang1": null, "lang2": null, "lang3": null, "y_coord": 17.98958587, "x_coord": 23.18040138, "adm1_pcode": "TCD20", "adm1_name": "ENNEDI EST", "adm1_name1": null, "adm1_name2": null, "adm1_name3": null, "adm2_pcode": "TCD2001", "adm2_name": "Amdjarass", "adm2_name1": null, "adm2_name2": null, "adm2_name3": null }, "geometry": { "type": "Point", "coordinates": [ 23.180401382000127, 17.989585872000191 ] } },
{ "type": "Feature", "properties": { "admin_level": 2, "name": "Tibesti Est", "name1": null, "name2": null, "name3": null, "adm0_pcode": "TCD", "adm0_name": "Tchad", "valid_on": "2025-02-12", "valid_to": null, "area_sqkm": 125725.3090829, "version": "v01", "lang": "fr", "lang1": null, "lang2": null, "lang3": null, "y_coord": 20.77476232, "x_coord": 19.00402867, "adm1_pcode": "TCD22", "adm1_name": "TIBESTI", "adm1_name1": null, "adm1_name2": null, "adm1_name3": null, "adm2_pcode": "TCD2201", "adm2_name": "Tibesti Est", "adm2_name1": null, "adm2_name2": null, "adm2_name3": null }, "geometry": { "type": "Point", "coordinates": [ 19.004028669000093, 20.774762323 ] } },
{ "type": "Feature", "properties": { "admin_level": 2, "name": "Tibesti Ouest", "name1": null, "name2": null, "name3": null, "adm0_pcode": "TCD", "adm0_name": "Tchad", "valid_on": "2025-02-12", "valid_to": null, "area_sqkm": 87864.650831480001, "version": "v01", "lang": "fr", "lang1": null, "lang2": null, "lang3": null, "y_coord": 20.14370105, "x_coord": 16.57503113, "adm1_pcode": "TCD22", "adm1_name": "TIBESTI", "adm1_name1": null, "adm1_name2": null, "adm1_name3": null, "adm2_pcode": "TCD2202", "adm2_name": "Tibesti Ouest", "adm2_name1": null, "adm2_name2": null, "adm2_name3": null }, "geometry": { "type": "Point", "coordinates": [ 16.575031129000081, 20.143701054000132 ] } }
]
}
